{
  "type": "FeatureCollection",
  "generator": "overpass-ide",
  "copyright": "The data included in this document is from www.openstreetmap.org. The data is made available under ODbL.",
  "timestamp": "2023-03-06T03:46:23Z",
  "features": [
    {
      "type": "Feature",
      "properties": {
        "@id": "node/207731972",
        "addr:city": "Jacksonville",
        "addr:country": "US",
        "addr:full": "2000 John Harden Dr",
        "addr:housenumber": "2000",
        "addr:postcode": "72076",
        "addr:state": "AR",
        "addr:street": "John Harden Drive",
        "brand": "Walmart",
        "brand:wikidata": "Q483551",
        "brand:wikipedia": "en:Walmart",
        "name": "Walmart Supercenter",
        "opening_hours": "24/7",
        "operator": "Walmart",
        "phone": "+1-501-985-8731",
        "ref:walmart": "24",
        "shop": "supermarket",
        "website": "https://www.walmart.com/store/24/jacksonville-ar/whats-new"
      },
      "geometry": {
        "type": "Point",
        "coordinates": [
          -92.11255,
          34.885098
        ]
      },
      "id": "node/207731972"
    },
    {
      "type": "Feature",
      "properties": {
        "@id": "node/453645440",
        "addr:city": "Mena",
        "addr:country": "US",
        "addr:full": "600 Highway 71 N",
        "addr:housenumber": "600",
        "addr:postcode": "71953",
        "addr:state": "AR",
        "addr:street": "Highway 71 North",
        "brand": "Walmart",
        "brand:wikidata": "Q483551",
        "brand:wikipedia": "en:Walmart",
        "name": "Walmart Supercenter",
        "opening_hours": "24/7",
        "operator": "Walmart",
        "phone": "+1-479-394-0025",
        "ref:walmart": "67",
        "shop": "supermarket",
        "website": "https://www.walmart.com/store/67/mena-ar/whats-new"
      },
      "geometry": {
        "type": "Point",
        "coordinates": [
          -94.2258498,
          34.5885432
        ]
      },
      "id": "node/453645440"
    },
    {
      "type": "Feature",
      "properties": {
        "@id": "node/603373132",
        "amenity": "fuel",
        "name": "Rick's",
        "name_1": "Citgo",
        "shop": "convenience"
      },
      "geometry": {
        "type": "Point",
        "coordinates": [
          -91.8396926,
          35.4254864
        ]
      },
      "id": "node/603373132"
    },
    {
      "type": "Feature",
      "properties": {
        "@id": "node/603373134",
        "amenity": "fuel",
        "name": "Valero",
        "shop": "convenience"
      },
      "geometry": {
        "type": "Point",
        "coordinates": [
          -91.8402828,
          35.4246472
        ]
      },
      "id": "node/603373134"
    },
    {
      "type": "Feature",
      "properties": {
        "@id": "node/624790910",
        "addr:city": "Hot Springs",
        "addr:country": "US",
        "addr:full": "4019 Central Ave",
        "addr:housenumber": "4019",
        "addr:postcode": "71913",
        "addr:state": "AR",
        "addr:street": "Central Avenue",
        "brand": "Walmart",
        "brand:wikidata": "Q483551",
        "brand:wikipedia": "en:Walmart",
        "name": "Walmart Supercenter",
        "opening_hours": "24/7",
        "operator": "Walmart",
        "phone": "+1-501-623-7605",
        "ref:walmart": "261",
        "shop": "supermarket",
        "website": "https://www.walmart.com/store/261/hot-springs-ar/whats-new"
      },
      "geometry": {
        "type": "Point",
        "coordinates": [
          -93.0605561,
          34.4545144
        ]
      },
      "id": "node/624790910"
    },
    {
      "type": "Feature",
      "properties": {
        "@id": "node/718928117",
        "name": "Harvest Foods",
        "shop": "supermarket"
      },
      "geometry": {
        "type": "Point",
        "coordinates": [
          -92.5687098,
          34.6286513
        ]
      },
      "id": "node/718928117"
    },
    {
      "type": "Feature",
      "properties": {
        "@id": "node/719878713",
        "name": "Terry's",
        "shop": "supermarket"
      },
      "geometry": {
        "type": "Point",
        "coordinates": [
          -92.329459,
          34.7696986
        ]
      },
      "id": "node/719878713"
    },
    {
      "type": "Feature",
      "properties": {
        "@id": "node/835038823",
        "amenity": "fuel",
        "name": "Citgo",
        "shop": "convenience"
      },
      "geometry": {
        "type": "Point",
        "coordinates": [
          -91.5608651,
          35.3210444
        ]
      },
      "id": "node/835038823"
    },
    {
      "type": "Feature",
      "properties": {
        "@id": "node/835038926",
        "amenity": "fuel",
        "brand": "Exxon",
        "brand:wikidata": "Q4781944",
        "name": "Exxon",
        "shop": "convenience"
      },
      "geometry": {
        "type": "Point",
        "coordinates": [
          -91.5619916,
          35.3215696
        ]
      },
      "id": "node/835038926"
    },
    {
      "type": "Feature",
      "properties": {
        "@id": "node/835039395",
        "amenity": "fuel",
        "brand": "Phillips 66",
        "brand:wikidata": "Q1656230",
        "name": "Phillips 66",
        "shop": "convenience"
      },
      "geometry": {
        "type": "Point",
        "coordinates": [
          -91.5609509,
          35.3236442
        ]
      },
      "id": "node/835039395"
    },
    {
      "type": "Feature",
      "properties": {
        "@id": "node/843074206",
        "amenity": "fuel",
        "name": "Shell",
        "shop": "convenience"
      },
      "geometry": {
        "type": "Point",
        "coordinates": [
          -92.5471368,
          35.0783002
        ]
      },
      "id": "node/843074206"
    },
    {
      "type": "Feature",
      "properties": {
        "@id": "node/843205707",
        "amenity": "fuel",
        "name": "Fina",
        "shop": "convenience"
      },
      "geometry": {
        "type": "Point",
        "coordinates": [
          -92.4422522,
          35.067431
        ]
      },
      "id": "node/843205707"
    },
    {
      "type": "Feature",
      "properties": {
        "@id": "node/1108845109",
        "shop": "supermarket"
      },
      "geometry": {
        "type": "Point",
        "coordinates": [
          -93.7326477,
          36.0859816
        ]
      },
      "id": "node/1108845109"
    },
    {
      "type": "Feature",
      "properties": {
        "@id": "node/1108845116",
        "amenity": "fuel",
        "note": "as of ~2001",
        "shop": "convenience"
      },
      "geometry": {
        "type": "Point",
        "coordinates": [
          -93.8042791,
          35.9620894
        ]
      },
      "id": "node/1108845116"
    },
    {
      "type": "Feature",
      "properties": {
        "@id": "node/1116320039",
        "name": "Bob's Food City",
        "shop": "supermarket"
      },
      "geometry": {
        "type": "Point",
        "coordinates": [
          -93.6238951,
          34.5499204
        ]
      },
      "id": "node/1116320039"
    },
    {
      "type": "Feature",
      "properties": {
        "@id": "node/1116320069",
        "name": "Quick Sak",
        "shop": "convenience"
      },
      "geometry": {
        "type": "Point",
        "coordinates": [
          -93.630021,
          34.5535787
        ]
      },
      "id": "node/1116320069"
    },
    {
      "type": "Feature",
      "properties": {
        "@id": "node/1125091704",
        "addr:city": "Fayetteville",
        "addr:country": "US",
        "addr:full": "1940 North Crossover Road",
        "addr:housenumber": "1940",
        "addr:postcode": "72703",
        "addr:state": "AR",
        "addr:street": "North Crossover Road",
        "amenity": "fuel",
        "brand": "Shell",
        "brand:wikidata": "Q110716465",
        "name": "White Oak Station",
        "phone": "+1 479 527 6900",
        "shop": "convenience",
        "usar_addr:edit_date": "090511_BC",
        "website": "https://www.whiteoakstation.com/"
      },
      "geometry": {
        "type": "Point",
        "coordinates": [
          -94.1208829,
          36.0877332
        ]
      },
      "id": "node/1125091704"
    },
    {
      "type": "Feature",
      "properties": {
        "@id": "node/1125111252",
        "addr:city": "Fayetteville",
        "addr:country": "US",
        "addr:full": "3055 North College Avenue",
        "addr:housenumber": "3055",
        "addr:postcode": "72703",
        "addr:state": "AR",
        "addr:street": "North College Avenue",
        "name": "Harps",
        "opening_hours": "06:00-22:00",
        "phone": "+1 479 442 7381",
        "shop": "supermarket",
        "usar_addr:edit_date": "090511_BC",
        "website": "https://www.harpsfood.com/StoreLocator/Store_Detail_S.las?L=355&S="
      },
      "geometry": {
        "type": "Point",
        "coordinates": [
          -94.1477161,
          36.1081494
        ]
      },
      "id": "node/1125111252"
    },
    {
      "type": "Feature",
      "properties": {
        "@id": "node/1125859755",
        "addr:city": "Elkins",
        "addr:country": "US",
        "addr:full": "1951 North Center Street",
        "addr:housenumber": "1951",
        "addr:postcode": "72727",
        "addr:state": "AR",
        "addr:street": "North Center Street",
        "shop": "supermarket",
        "usar_addr:edit_date": "090511_BC"
      },
      "geometry": {
        "type": "Point",
        "coordinates": [
          -94.022507,
          36.0264699
        ]
      },
      "id": "node/1125859755"
    },
    {
      "type": "Feature",
      "properties": {
        "@id": "node/1125863400",
        "addr:city": "Springdale",
        "addr:country": "US",
        "addr:full": "20983 West Vanzant Road",
        "addr:housenumber": "20983",
        "addr:postcode": "72764",
        "addr:state": "AR",
        "addr:street": "West Vanzant Road",
        "name": "Hometown Country Store",
        "shop": "convenience",
        "usar_addr:edit_date": "090511_BC"
      },
      "geometry": {
        "type": "Point",
        "coordinates": [
          -93.9696786,
          36.1788626
        ]
      },
      "id": "node/1125863400"
    },
    {
      "type": "Feature",
      "properties": {
        "@id": "node/1127250461",
        "addr:city": "Rogers",
        "addr:country": "US",
        "addr:full": "1701 West New Hope Road",
        "addr:housenumber": "1701",
        "addr:postcode": "72758",
        "addr:state": "AR",
        "addr:street": "West New Hope Road",
        "name": "Kum & Go",
        "shop": "convenience",
        "usar_addr:edit_date": "100208_BC"
      },
      "geometry": {
        "type": "Point",
        "coordinates": [
          -94.1434925,
          36.3128842
        ]
      },
      "id": "node/1127250461"
    },
    {
      "type": "Feature",
      "properties": {
        "@id": "node/1127251119",
        "addr:city": "Siloam Springs",
        "addr:country": "US",
        "addr:full": "875 East Jefferson Street",
        "addr:housenumber": "875",
        "addr:postcode": "72761",
        "addr:state": "AR",
        "addr:street": "East Jefferson Street",
        "name": "Mi Tienda",
        "shop": "convenience",
        "usar_addr:edit_date": "100208_BC"
      },
      "geometry": {
        "type": "Point",
        "coordinates": [
          -94.5339392,
          36.1815994
        ]
      },
      "id": "node/1127251119"
    },
    {
      "type": "Feature",
      "properties": {
        "@id": "node/1127253834",
        "addr:city": "Rogers",
        "addr:country": "US",
        "addr:full": "4011 West Walnut Street",
        "addr:housenumber": "4011",
        "addr:postcode": "72756",
        "addr:state": "AR",
        "addr:street": "West Walnut Street",
        "name": "Akin's Natural Foods",
        "organic": "only",
        "shop": "supermarket",
        "usar_addr:edit_date": "100208_BC"
      },
      "geometry": {
        "type": "Point",
        "coordinates": [
          -94.1764355,
          36.3364258
        ]
      },
      "id": "node/1127253834"
    },
    {
      "type": "Feature",
      "properties": {
        "@id": "node/1127300236",
        "addr:city": "Rogers",
        "addr:country": "US",
        "addr:full": "2107 Promenade Boulevard",
        "addr:housenumber": "2107",
        "addr:postcode": "72758",
        "addr:state": "AR",
        "addr:street": "Promenade Boulevard",
        "brand": "The Fresh Market",
        "brand:wikidata": "Q7735265",
        "brand:wikipedia": "en:The Fresh Market",
        "name": "The Fresh Market",
        "shop": "supermarket",
        "usar_addr:edit_date": "100208_BC"
      },
      "geometry": {
        "type": "Point",
        "coordinates": [
          -94.1766334,
          36.3046499
        ]
      },
      "id": "node/1127300236"
    },
    {
      "type": "Feature",
      "properties": {
        "@id": "node/1127317431",
        "addr:city": "Lowell",
        "addr:country": "US",
        "addr:full": "203 North Bloomington Street",
        "addr:housenumber": "203",
        "addr:postcode": "72745",
        "addr:state": "AR",
        "addr:street": "North Bloomington Street",
        "name": "Marvin's Food Store",
        "shop": "supermarket",
        "usar_addr:edit_date": "100208_BC"
      },
      "geometry": {
        "type": "Point",
        "coordinates": [
          -94.1354915,
          36.2562784
        ]
      },
      "id": "node/1127317431"
    },
    {
      "type": "Feature",
      "properties": {
        "@id": "node/1127337907",
        "addr:city": "Rogers",
        "addr:country": "US",
        "addr:full": "1531 South 8th Street",
        "addr:housenumber": "1531",
        "addr:postcode": "72756",
        "addr:state": "AR",
        "addr:street": "South 8th Street",
        "amenity": "fuel",
        "name": "Casey's General Store",
        "shop": "convenience",
        "usar_addr:edit_date": "100208_BC"
      },
      "geometry": {
        "type": "Point",
        "coordinates": [
          -94.1255332,
          36.3195293
        ]
      },
      "id": "node/1127337907"
    },
    {
      "type": "Feature",
      "properties": {
        "@id": "node/1127348943",
        "addr:city": "Rogers",
        "addr:country": "US",
        "addr:full": "1910 South 1st Street",
        "addr:housenumber": "1910",
        "addr:postcode": "72758",
        "addr:state": "AR",
        "addr:street": "South 1st Street",
        "name": "Encarnation Market",
        "shop": "supermarket",
        "usar_addr:edit_date": "100208_BC"
      },
      "geometry": {
        "type": "Point",
        "coordinates": [
          -94.1178907,
          36.3096504
        ]
      },
      "id": "node/1127348943"
    },
    {
      "type": "Feature",
      "properties": {
        "@id": "node/1127364402",
        "addr:city": "Rogers",
        "addr:country": "US",
        "addr:full": "103 North Dixieland Road",
        "addr:housenumber": "103",
        "addr:postcode": "72756",
        "addr:state": "AR",
        "addr:street": "North Dixieland Road",
        "name": "10 Box",
        "shop": "supermarket",
        "usar_addr:edit_date": "100208_BC"
      },
      "geometry": {
        "type": "Point",
        "coordinates": [
          -94.1424984,
          36.335559
        ]
      },
      "id": "node/1127364402"
    },
    {
      "type": "Feature",
      "properties": {
        "@id": "node/1127409804",
        "addr:city": "Rogers",
        "addr:country": "US",
        "addr:full": "300 South 8th Street",
        "addr:housenumber": "300",
        "addr:postcode": "72756",
        "addr:state": "AR",
        "addr:street": "South 8th Street",
        "name": "La Villita Supermercado",
        "shop": "supermarket",
        "usar_addr:edit_date": "100208_BC"
      },
      "geometry": {
        "type": "Point",
        "coordinates": [
          -94.126699,
          36.3312762
        ]
      },
      "id": "node/1127409804"
    },
    {
      "type": "Feature",
      "properties": {
        "@id": "node/1127427188",
        "addr:city": "Rogers",
        "addr:country": "US",
        "addr:full": "219 South Arkansas Street",
        "addr:housenumber": "219",
        "addr:postcode": "72756",
        "addr:state": "AR",
        "addr:street": "South Arkansas Street",
        "name": "Jiffy Kwick",
        "shop": "convenience",
        "usar_addr:edit_date": "100208_BC"
      },
      "geometry": {
        "type": "Point",
        "coordinates": [
          -94.1149368,
          36.3311482
        ]
      },
      "id": "node/1127427188"
    },
    {
      "type": "Feature",
      "properties": {
        "@id": "node/1127454997",
        "addr:city": "Rogers",
        "addr:country": "US",
        "addr:housenumber": "514",
        "addr:postcode": "72756",
        "addr:state": "AR",
        "addr:street": "North 2nd Street",
        "brand": "Casey's General Store",
        "brand:wikidata": "Q2940968",
        "name": "Casey's General Store",
        "opening_hours": "24/7",
        "phone": "+1 479 621 0488",
        "shop": "convenience",
        "website": "https://www.caseys.com/general-store/ar-rogers/514-n-2nd-st/3250"
      },
      "geometry": {
        "type": "Point",
        "coordinates": [
          -94.1173849,
          36.3374924
        ]
      },
      "id": "node/1127454997"
    },
    {
      "type": "Feature",
      "properties": {
        "@id": "node/1127509586",
        "addr:city": "Rogers",
        "addr:country": "US",
        "addr:full": "3075 West Pleasant Grove Road",
        "addr:housenumber": "3075",
        "addr:postcode": "72758",
        "addr:state": "AR",
        "addr:street": "West Pleasant Grove Road",
        "name": "Casey's General Store",
        "shop": "convenience",
        "usar_addr:edit_date": "100208_BC"
      },
      "geometry": {
        "type": "Point",
        "coordinates": [
          -94.1624876,
          36.2839873
        ]
      },
      "id": "node/1127509586"
    },
    {
      "type": "Feature",
      "properties": {
        "@id": "node/1127574485",
        "addr:city": "Gentry",
        "addr:country": "US",
        "addr:full": "300 South Gentry Boulevard",
        "addr:housenumber": "300",
        "addr:postcode": "72734",
        "addr:state": "AR",
        "addr:street": "South Gentry Boulevard",
        "name": "Harps Grocery Store",
        "shop": "supermarket",
        "usar_addr:edit_date": "100208_BC"
      },
      "geometry": {
        "type": "Point",
        "coordinates": [
          -94.4795107,
          36.2649054
        ]
      },
      "id": "node/1127574485"
    },
    {
      "type": "Feature",
      "properties": {
        "@id": "node/1157687000",
        "name": "Big Al's",
        "shop": "convenience"
      },
      "geometry": {
        "type": "Point",
        "coordinates": [
          -91.7768432,
          35.2032659
        ]
      },
      "id": "node/1157687000"
    },
    {
      "type": "Feature",
      "properties": {
        "@id": "node/1162546751",
        "name": "Sav-A-Lot",
        "shop": "supermarket"
      },
      "geometry": {
        "type": "Point",
        "coordinates": [
          -89.9258988,
          35.9269615
        ]
      },
      "id": "node/1162546751"
    },
    {
      "type": "Feature",
      "properties": {
        "@id": "node/1179021730",
        "shop": "convenience"
      },
      "geometry": {
        "type": "Point",
        "coordinates": [
          -93.1220775,
          36.1400051
        ]
      },
      "id": "node/1179021730"
    },
    {
      "type": "Feature",
      "properties": {
        "@id": "node/1179052574",
        "name": "Hudsons",
        "shop": "supermarket"
      },
      "geometry": {
        "type": "Point",
        "coordinates": [
          -93.1067267,
          36.2359199
        ]
      },
      "id": "node/1179052574"
    },
    {
      "type": "Feature",
      "properties": {
        "@id": "node/1179180183",
        "shop": "convenience"
      },
      "geometry": {
        "type": "Point",
        "coordinates": [
          -93.1304642,
          36.2336266
        ]
      },
      "id": "node/1179180183"
    },
    {
      "type": "Feature",
      "properties": {
        "@id": "node/1179457965",
        "name": "Edwards",
        "shop": "supermarket"
      },
      "geometry": {
        "type": "Point",
        "coordinates": [
          -93.0987283,
          36.2298551
        ]
      },
      "id": "node/1179457965"
    },
    {
      "type": "Feature",
      "properties": {
        "@id": "node/1179663982",
        "shop": "supermarket"
      },
      "geometry": {
        "type": "Point",
        "coordinates": [
          -93.1147787,
          36.2490137
        ]
      },
      "id": "node/1179663982"
    },
    {
      "type": "Feature",
      "properties": {
        "@id": "node/1196594073",
        "addr:city": "Rogers",
        "addr:country": "US",
        "addr:full": "5000 Pauline Whitaker Parkway",
        "addr:housenumber": "5000",
        "addr:postcode": "72758",
        "addr:state": "AR",
        "addr:street": "Pauline Whitaker Parkway",
        "brand": "Walmart",
        "brand:wikidata": "Q483551",
        "brand:wikipedia": "en:Walmart",
        "name": "Walmart Neighborhood Market",
        "opening_hours": "Mo-Su 06:00-24:00",
        "operator": "Walmart",
        "phone": "+1-479-254-1004",
        "ref:walmart": "5837",
        "shop": "supermarket",
        "website": "https://www.walmart.com/store/5837/rogers-ar/whats-new"
      },
      "geometry": {
        "type": "Point",
        "coordinates": [
          -94.185901,
          36.2955619
        ]
      },
      "id": "node/1196594073"
    },
    {
      "type": "Feature",
      "properties": {
        "@id": "node/1245635148",
        "name": "Shell Superstop",
        "shop": "convenience"
      },
      "geometry": {
        "type": "Point",
        "coordinates": [
          -92.717402,
          35.1718533
        ]
      },
      "id": "node/1245635148"
    },
    {
      "type": "Feature",
      "properties": {
        "@id": "node/1258813039",
        "brand": "On the Run",
        "brand:wikidata": "Q16931259",
        "brand:wikipedia": "en:On the Run (convenience store)",
        "name": "On the Run",
        "shop": "convenience"
      },
      "geometry": {
        "type": "Point",
        "coordinates": [
          -92.3802109,
          36.3326516
        ]
      },
      "id": "node/1258813039"
    },
    {
      "type": "Feature",
      "properties": {
        "@id": "node/1309409573",
        "addr:city": "Little Rock",
        "addr:housenumber": "1201",
        "addr:postcode": "72204",
        "addr:state": "AR",
        "addr:street": "South Woodrow Street",
        "name": "Golden Foods",
        "shop": "convenience"
      },
      "geometry": {
        "type": "Point",
        "coordinates": [
          -92.3054428,
          34.7395575
        ]
      },
      "id": "node/1309409573"
    },
    {
      "type": "Feature",
      "properties": {
        "@id": "node/1330885892",
        "shop": "convenience"
      },
      "geometry": {
        "type": "Point",
        "coordinates": [
          -92.5156328,
          34.6165769
        ]
      },
      "id": "node/1330885892"
    },
    {
      "type": "Feature",
      "properties": {
        "@id": "node/1354236226",
        "name": "Stop -N- By",
        "shop": "convenience"
      },
      "geometry": {
        "type": "Point",
        "coordinates": [
          -89.98224,
          35.6981899
        ]
      },
      "id": "node/1354236226"
    },
    {
      "type": "Feature",
      "properties": {
        "@id": "node/1354236244",
        "name": "Walmart",
        "shop": "supermarket"
      },
      "geometry": {
        "type": "Point",
        "coordinates": [
          -89.9840746,
          35.6966564
        ]
      },
      "id": "node/1354236244"
    },
    {
      "type": "Feature",
      "properties": {
        "@id": "node/1354652499",
        "name": "Mark's",
        "shop": "convenience"
      },
      "geometry": {
        "type": "Point",
        "coordinates": [
          -89.9192833,
          35.8891079
        ]
      },
      "id": "node/1354652499"
    },
    {
      "type": "Feature",
      "properties": {
        "@id": "node/1354916875",
        "addr:city": "Blytheville",
        "addr:country": "US",
        "addr:full": "3700 E Highway 18",
        "addr:housenumber": "3700",
        "addr:postcode": "72315",
        "addr:state": "AR",
        "addr:street": "East Highway 18",
        "brand": "Walmart",
        "brand:wikidata": "Q483551",
        "brand:wikipedia": "en:Walmart",
        "name": "Walmart Supercenter",
        "opening_hours": "24/7",
        "operator": "Walmart",
        "phone": "+1-870-763-0440",
        "ref:walmart": "62",
        "shop": "supermarket",
        "website": "https://www.walmart.com/store/62/blytheville-ar/whats-new"
      },
      "geometry": {
        "type": "Point",
        "coordinates": [
          -89.872175,
          35.931083
        ]
      },
      "id": "node/1354916875"
    },
    {
      "type": "Feature",
      "properties": {
        "@id": "node/1437075134",
        "shop": "convenience"
      },
      "geometry": {
        "type": "Point",
        "coordinates": [
          -92.7735339,
          34.8811155
        ]
      },
      "id": "node/1437075134"
    },
    {
      "type": "Feature",
      "properties": {
        "@id": "node/1439902072",
        "brand": "Tiger Mart",
        "brand:wikidata": "Q57643977",
        "name": "Tiger Mart",
        "shop": "convenience"
      },
      "geometry": {
        "type": "Point",
        "coordinates": [
          -93.6294015,
          34.5526835
        ]
      },
      "id": "node/1439902072"
    },
    {
      "type": "Feature",
      "properties": {
        "@id": "node/1707698375",
        "amenity": "marketplace"
      },
      "geometry": {
        "type": "Point",
        "coordinates": [
          -92.5003195,
          34.6336907
        ]
      },
      "id": "node/1707698375"
    },
    {
      "type": "Feature",
      "properties": {
        "@id": "node/1791476744",
        "shop": "convenience"
      },
      "geometry": {
        "type": "Point",
        "coordinates": [
          -92.5928536,
          34.1770954
        ]
      },
      "id": "node/1791476744"
    },
    {
      "type": "Feature",
      "properties": {
        "@id": "node/1909488137",
        "addr:city": "Sheridan",
        "addr:country": "US",
        "addr:full": "1308 S Rock St",
        "addr:housenumber": "1308",
        "addr:postcode": "72150",
        "addr:state": "AR",
        "addr:street": "South Rock Street",
        "fixme": "Address",
        "name": "Walmart Supercenter",
        "opening_hours": "24/7",
        "operator": "Walmart",
        "phone": "+1-870-942-7171",
        "ref:walmart": "336",
        "shop": "supermarket",
        "website": "https://www.walmart.com/store/336/sheridan-ar/whats-new"
      },
      "geometry": {
        "type": "Point",
        "coordinates": [
          -92.397163,
          34.291348
        ]
      },
      "id": "node/1909488137"
    },
    {
      "type": "Feature",
      "properties": {
        "@id": "node/2112873140",
        "addr:city": "Little Rock",
        "addr:country": "US",
        "addr:housenumber": "19301",
        "addr:postcode": "72223",
        "addr:state": "AR",
        "addr:street": "Cantrell Road",
        "brand": "Walmart",
        "brand:wikidata": "Q483551",
        "name": "Walmart Supercenter",
        "opening_hours": "Mo-Su 06:00-23:00",
        "operator": "Walmart",
        "phone": "+1-501-868-4659",
        "ref:walmart": "5244",
        "shop": "supermarket",
        "website": "https://www.walmart.com/store/5244/little-rock-ar/whats-new"
      },
      "geometry": {
        "type": "Point",
        "coordinates": [
          -92.485983,
          34.809468
        ]
      },
      "id": "node/2112873140"
    },
    {
      "type": "Feature",
      "properties": {
        "@id": "node/2340132596",
        "addr:city": "North Little Rock",
        "addr:country": "US",
        "addr:full": "12001 Maumelle Blvd",
        "addr:housenumber": "12001",
        "addr:postcode": "72113",
        "addr:state": "AR",
        "addr:street": "Maumelle Boulevard",
        "brand": "Walmart",
        "brand:wikidata": "Q483551",
        "brand:wikipedia": "en:Walmart",
        "name": "Walmart Supercenter",
        "opening_hours": "24/7",
        "operator": "Walmart",
        "operator:wikidata": "Q483551",
        "operator:wikipedia": "en:Walmart",
        "phone": "+1-501-851-6102",
        "ref:walmart": "4460",
        "shop": "supermarket",
        "website": "https://www.walmart.com/store/4460/north-little%20rock-ar/whats-new"
      },
      "geometry": {
        "type": "Point",
        "coordinates": [
          -92.3942574,
          34.8318653
        ]
      },
      "id": "node/2340132596"
    },
    {
      "type": "Feature",
      "properties": {
        "@id": "node/2349431069",
        "brand": "Piggly Wiggly",
        "brand:wikidata": "Q3388303",
        "brand:wikipedia": "en:Piggly Wiggly",
        "name": "Piggly Wiggly",
        "shop": "supermarket"
      },
      "geometry": {
        "type": "Point",
        "coordinates": [
          -91.7908756,
          33.6243729
        ]
      },
      "id": "node/2349431069"
    },
    {
      "type": "Feature",
      "properties": {
        "@id": "node/2349898988",
        "name": "Sav-A-Lot",
        "shop": "supermarket"
      },
      "geometry": {
        "type": "Point",
        "coordinates": [
          -91.7964234,
          33.630536
        ]
      },
      "id": "node/2349898988"
    },
    {
      "type": "Feature",
      "properties": {
        "@id": "node/2349898991",
        "name": "La Casita Mexican Store",
        "shop": "convenience"
      },
      "geometry": {
        "type": "Point",
        "coordinates": [
          -91.80274,
          33.6322043
        ]
      },
      "id": "node/2349898991"
    },
    {
      "type": "Feature",
      "properties": {
        "@id": "node/2535886359",
        "addr:housenumber": "404",
        "addr:postcode": "72714",
        "addr:street": "Towncenter",
        "name": "Harps Food Store",
        "shop": "supermarket"
      },
      "geometry": {
        "type": "Point",
        "coordinates": [
          -94.2470203,
          36.4768761
        ]
      },
      "id": "node/2535886359"
    },
    {
      "type": "Feature",
      "properties": {
        "@id": "node/2680838943",
        "addr:city": "West Helena",
        "addr:country": "US",
        "addr:full": "602 Shelia Street",
        "addr:housenumber": "602",
        "addr:postcode": "72390",
        "addr:state": "AR",
        "addr:street": "Shelia Street",
        "brand": "Walmart",
        "brand:wikidata": "Q483551",
        "brand:wikipedia": "en:Walmart",
        "name": "Walmart Supercenter",
        "opening_hours": "24/7",
        "operator": "Walmart",
        "phone": "+1-870-572-2442",
        "ref:walmart": "714",
        "shop": "supermarket",
        "website": "https://www.walmart.com/store/714/west-helena-ar/whats-new"
      },
      "geometry": {
        "type": "Point",
        "coordinates": [
          -90.6506285,
          34.5555728
        ]
      },
      "id": "node/2680838943"
    },
    {
      "type": "Feature",
      "properties": {
        "@id": "node/2680873159",
        "name": "Avoca One Stop",
        "shop": "convenience"
      },
      "geometry": {
        "type": "Point",
        "coordinates": [
          -94.0720618,
          36.402312
        ]
      },
      "id": "node/2680873159"
    },
    {
      "type": "Feature",
      "properties": {
        "@id": "node/2780788401",
        "name": "Price Chopper",
        "shop": "supermarket"
      },
      "geometry": {
        "type": "Point",
        "coordinates": [
          -91.4849868,
          36.3164315
        ]
      },
      "id": "node/2780788401"
    },
    {
      "type": "Feature",
      "properties": {
        "@id": "node/3256836644",
        "shop": "convenience"
      },
      "geometry": {
        "type": "Point",
        "coordinates": [
          -92.0709133,
          34.9821193
        ]
      },
      "id": "node/3256836644"
    },
    {
      "type": "Feature",
      "properties": {
        "@id": "node/3319755577",
        "name": "Lewis Grocery and Ryan`s Deli",
        "shop": "supermarket"
      },
      "geometry": {
        "type": "Point",
        "coordinates": [
          -92.5594283,
          35.8287565
        ]
      },
      "id": "node/3319755577"
    },
    {
      "type": "Feature",
      "properties": {
        "@id": "node/3370897492",
        "name": "Arkansas Handmade",
        "shop": "convenience"
      },
      "geometry": {
        "type": "Point",
        "coordinates": [
          -92.559986,
          35.8291629
        ]
      },
      "id": "node/3370897492"
    },
    {
      "type": "Feature",
      "properties": {
        "@id": "node/3372380772",
        "name": "Elk & Eagle Trading Post",
        "shop": "convenience"
      },
      "geometry": {
        "type": "Point",
        "coordinates": [
          -92.5599585,
          35.8292865
        ]
      },
      "id": "node/3372380772"
    },
    {
      "type": "Feature",
      "properties": {
        "@id": "node/3533533128",
        "addr:city": "Jonesboro",
        "addr:housenumber": "4225",
        "addr:postcode": "72404",
        "addr:state": "AR",
        "addr:street": "Stadium Boulevard",
        "name": "Bill's Fresh Market",
        "phone": "870-336-0370",
        "shop": "supermarket",
        "website": "http://www.billsfreshmarket.com/location_details.php?id=6"
      },
      "geometry": {
        "type": "Point",
        "coordinates": [
          -90.6706524,
          35.7915339
        ]
      },
      "id": "node/3533533128"
    },
    {
      "type": "Feature",
      "properties": {
        "@id": "node/3755358882",
        "name": "Circle M",
        "shop": "convenience"
      },
      "geometry": {
        "type": "Point",
        "coordinates": [
          -93.7637559,
          35.447776
        ]
      },
      "id": "node/3755358882"
    },
    {
      "type": "Feature",
      "properties": {
        "@id": "node/3801011354",
        "name": "Edwards Food Giant",
        "shop": "supermarket"
      },
      "geometry": {
        "type": "Point",
        "coordinates": [
          -92.3573175,
          34.7706511
        ]
      },
      "id": "node/3801011354"
    },
    {
      "type": "Feature",
      "properties": {
        "@id": "node/4337273246",
        "addr:city": "Greenwood",
        "addr:country": "US",
        "addr:full": "551 Liberty Dr",
        "addr:housenumber": "551",
        "addr:postcode": "72936",
        "addr:state": "AR",
        "addr:street": "Liberty Drive",
        "name": "Walmart Supercenter",
        "opening_hours": "24/7",
        "operator": "Walmart",
        "phone": "+1-479-996-8500",
        "ref:walmart": "3231",
        "shop": "supermarket",
        "website": "https://www.walmart.com/store/3231/greenwood-ar/whats-new"
      },
      "geometry": {
        "type": "Point",
        "coordinates": [
          -94.2966903,
          35.2207257
        ]
      },
      "id": "node/4337273246"
    },
    {
      "type": "Feature",
      "properties": {
        "@id": "node/4373029434",
        "name": "Edwards Food Giant",
        "shop": "supermarket"
      },
      "geometry": {
        "type": "Point",
        "coordinates": [
          -92.3615279,
          34.6688291
        ]
      },
      "id": "node/4373029434"
    },
    {
      "type": "Feature",
      "properties": {
        "@id": "node/4471342992",
        "addr:city": "Clarksville",
        "addr:country": "US",
        "addr:housenumber": "230",
        "addr:postcode": "72830",
        "addr:state": "AR",
        "addr:street": "Market Street",
        "brand": "Walmart",
        "brand:wikidata": "Q483551",
        "brand:wikipedia": "en:Walmart",
        "name": "Walmart Supercenter",
        "opening_hours": "24/7",
        "operator": "Walmart",
        "phone": "+1-479-754-2046",
        "ref:walmart": "66",
        "shop": "supermarket",
        "website": "https://www.walmart.com/store/66/clarksville-ar/whats-new"
      },
      "geometry": {
        "type": "Point",
        "coordinates": [
          -93.4604149,
          35.4487479
        ]
      },
      "id": "node/4471342992"
    },
    {
      "type": "Feature",
      "properties": {
        "@id": "node/4501765689",
        "name": "The Corner",
        "name:en": "The Corner",
        "shop": "convenience"
      },
      "geometry": {
        "type": "Point",
        "coordinates": [
          -92.6185576,
          33.7233902
        ]
      },
      "id": "node/4501765689"
    },
    {
      "type": "Feature",
      "properties": {
        "@id": "node/4632400191",
        "addr:city": "McGehee",
        "addr:housenumber": "110",
        "addr:postcode": "71654",
        "addr:state": "AR",
        "addr:street": "Crooked Bayou Drive",
        "name": "Tobacco store",
        "shop": "supermarket"
      },
      "geometry": {
        "type": "Point",
        "coordinates": [
          -91.3814912,
          33.6107216
        ]
      },
      "id": "node/4632400191"
    },
    {
      "type": "Feature",
      "properties": {
        "@id": "node/4716645089",
        "addr:city": "Monticello",
        "addr:country": "US",
        "addr:housenumber": "427",
        "addr:postcode": "71655",
        "addr:state": "AR",
        "addr:street": "Highway 425 N",
        "brand": "Walmart",
        "brand:wikidata": "Q483551",
        "brand:wikipedia": "en:Walmart",
        "name": "Walmart Supercenter",
        "name:en": "Walmart Supercenter",
        "opening_hours": "24/7",
        "operator": "Walmart",
        "phone": "+1-870-367-0409",
        "ref:walmart": "348",
        "shop": "supermarket",
        "website": "https://www.walmart.com/store/348/monticello-ar/whats-new"
      },
      "geometry": {
        "type": "Point",
        "coordinates": [
          -91.8049195,
          33.6355608
        ]
      },
      "id": "node/4716645089"
    },
    {
      "type": "Feature",
      "properties": {
        "@id": "node/4794040765",
        "name": "Hart's Family Center",
        "shop": "supermarket"
      },
      "geometry": {
        "type": "Point",
        "coordinates": [
          -93.7364572,
          36.3925677
        ]
      },
      "id": "node/4794040765"
    },
    {
      "type": "Feature",
      "properties": {
        "@id": "node/4978505720",
        "addr:city": "Fayetteville",
        "addr:country": "US",
        "addr:housenumber": "3059",
        "addr:postcode": "72703",
        "addr:state": "AR",
        "addr:street": "North College Avenue",
        "name": "Berry Natural",
        "organic": "only",
        "phone": "+1 479 966 4636",
        "shop": "health_food",
        "website": "http://www.berrynaturaljuice.com/"
      },
      "geometry": {
        "type": "Point",
        "coordinates": [
          -94.1466198,
          36.1073731
        ]
      },
      "id": "node/4978505720"
    },
    {
      "type": "Feature",
      "properties": {
        "@id": "node/5282314614",
        "addr:city": "Rogers",
        "addr:country": "US",
        "addr:housenumber": "838",
        "addr:postcode": "72756",
        "addr:state": "AR",
        "addr:street": "West Walnut Street",
        "brand": "Walmart",
        "brand:wikidata": "Q483551",
        "brand:wikipedia": "en:Walmart",
        "name": "Walmart Neighborhood Market",
        "opening_hours": "24/7",
        "operator": "Walmart",
        "phone": "+1-479-202-7198",
        "ref:walmart": "3654",
        "shop": "supermarket",
        "website": "https://www.walmart.com/store/3654/rogers-ar/whats-new"
      },
      "geometry": {
        "type": "Point",
        "coordinates": [
          -94.1268102,
          36.3325202
        ]
      },
      "id": "node/5282314614"
    },
    {
      "type": "Feature",
      "properties": {
        "@id": "node/5282314616",
        "addr:city": "Rogers",
        "addr:housenumber": "726",
        "addr:postcode": "72756",
        "addr:state": "AR",
        "addr:street": "West Walnut Street",
        "name": "Cook's Natural Food Market",
        "organic": "only",
        "shop": "supermarket"
      },
      "geometry": {
        "type": "Point",
        "coordinates": [
          -94.1247775,
          36.3332063
        ]
      },
      "id": "node/5282314616"
    },
    {
      "type": "Feature",
      "properties": {
        "@id": "node/5284125188",
        "name": "White Oak Station",
        "shop": "convenience"
      },
      "geometry": {
        "type": "Point",
        "coordinates": [
          -94.1797782,
          36.3139435
        ]
      },
      "id": "node/5284125188"
    },
    {
      "type": "Feature",
      "properties": {
        "@id": "node/5291856461",
        "name": "Casey's General Store",
        "shop": "convenience"
      },
      "geometry": {
        "type": "Point",
        "coordinates": [
          -94.1438463,
          36.3549038
        ]
      },
      "id": "node/5291856461"
    },
    {
      "type": "Feature",
      "properties": {
        "@id": "node/5315594720",
        "addr:city": "Clinton",
        "addr:country": "US",
        "addr:full": "1966 Highway 65 S",
        "addr:housenumber": "1966",
        "addr:postcode": "72031",
        "addr:state": "AR",
        "addr:street": "Highway 65 South",
        "brand": "Walmart",
        "brand:wikidata": "Q483551",
        "name": "Walmart Supercenter",
        "opening_hours": "24/7",
        "operator": "Walmart",
        "phone": "+1-501-745-2498",
        "ref:walmart": "788",
        "shop": "supermarket",
        "website": "https://www.walmart.com/store/788/clinton-ar/whats-new"
      },
      "geometry": {
        "type": "Point",
        "coordinates": [
          -92.4544415,
          35.5668534
        ]
      },
      "id": "node/5315594720"
    },
    {
      "type": "Feature",
      "properties": {
        "@id": "node/5315596431",
        "addr:city": "Berryville",
        "addr:country": "US",
        "addr:full": "1000 W Trimble Ave",
        "addr:housenumber": "1000",
        "addr:postcode": "72616",
        "addr:state": "AR",
        "addr:street": "West Trimble Avenue",
        "brand": "Walmart",
        "brand:wikidata": "Q483551",
        "brand:wikipedia": "en:Walmart",
        "name": "Walmart Supercenter",
        "opening_hours": "24/7",
        "operator": "Walmart",
        "phone": "+1-870-423-4636",
        "ref:walmart": "76",
        "shop": "supermarket",
        "website": "https://www.walmart.com/store/76/berryville-ar/whats-new"
      },
      "geometry": {
        "type": "Point",
        "coordinates": [
          -93.5870153,
          36.376273
        ]
      },
      "id": "node/5315596431"
    },
    {
      "type": "Feature",
      "properties": {
        "@id": "node/5315596441",
        "addr:city": "Osceola",
        "addr:country": "US",
        "addr:full": "2720 W Keiser Ave",
        "addr:housenumber": "2720",
        "addr:postcode": "72370",
        "addr:state": "AR",
        "addr:street": "West Keiser Avenue",
        "name": "Walmart Supercenter",
        "opening_hours": "Mo-Su 06:00-24:00",
        "operator": "Walmart",
        "phone": "+1-870-563-3251",
        "ref:walmart": "74",
        "shop": "supermarket",
        "website": "https://www.walmart.com/store/74/osceola-ar/whats-new"
      },
      "geometry": {
        "type": "Point",
        "coordinates": [
          -90.0126791,
          35.6999918
        ]
      },
      "id": "node/5315596441"
    },
    {
      "type": "Feature",
      "properties": {
        "@id": "node/5315596445",
        "addr:city": "Bentonville",
        "addr:country": "US",
        "addr:full": "1300 S Walton Blvd",
        "addr:housenumber": "1300",
        "addr:postcode": "72712",
        "addr:state": "AR",
        "addr:street": "South Walton Boulevard",
        "name": "Convenience with Fuel",
        "opening_hours": "24/7",
        "operator": "Walmart",
        "phone": "+1-479-271-2209",
        "ref:walmart": "7368",
        "shop": "supermarket",
        "website": "https://www.walmart.com/store/7368/bentonville-ar/whats-new"
      },
      "geometry": {
        "type": "Point",
        "coordinates": [
          -94.2144,
          36.3575
        ]
      },
      "id": "node/5315596445"
    },
    {
      "type": "Feature",
      "properties": {
        "@id": "node/5315596461",
        "addr:city": "Greenbrier",
        "addr:country": "US",
        "addr:full": "75 South Broadview",
        "addr:housenumber": "75",
        "addr:postcode": "72058",
        "addr:state": "AR",
        "addr:street": "South Broadview",
        "name": "Walmart Neighborhood Market",
        "opening_hours": "Mo-Su 06:00-24:00",
        "operator": "Walmart",
        "phone": "+1-501-287-6001",
        "ref:walmart": "7317",
        "shop": "supermarket",
        "website": "https://www.walmart.com/store/7317/greenbrier-ar/whats-new"
      },
      "geometry": {
        "type": "Point",
        "coordinates": [
          -92.389561,
          35.225788
        ]
      },
      "id": "node/5315596461"
    },
    {
      "type": "Feature",
      "properties": {
        "@id": "node/5315596514",
        "addr:city": "Pocahontas",
        "addr:country": "US",
        "addr:full": "1415 Highway 67 S",
        "addr:housenumber": "1415",
        "addr:postcode": "72455",
        "addr:state": "AR",
        "addr:street": "Highway 67 South",
        "brand": "Walmart",
        "brand:wikidata": "Q483551",
        "brand:wikipedia": "en:Walmart",
        "name": "Walmart Supercenter",
        "opening_hours": "24/7",
        "operator": "Walmart",
        "phone": "+1-870-892-7703",
        "ref:walmart": "71",
        "shop": "supermarket",
        "website": "https://www.walmart.com/store/71/pocahontas-ar/whats-new"
      },
      "geometry": {
        "type": "Point",
        "coordinates": [
          -90.963337,
          36.248722
        ]
      },
      "id": "node/5315596514"
    },
    {
      "type": "Feature",
      "properties": {
        "@id": "node/5315596537",
        "addr:city": "Jonesboro",
        "addr:country": "US",
        "addr:full": "2811 Creek Dr",
        "addr:housenumber": "2811",
        "addr:postcode": "72401",
        "addr:state": "AR",
        "addr:street": "Creek Drive",
        "name": "Walmart Neighborhood Market",
        "opening_hours": "Mo-Su 06:00-24:00",
        "operator": "Walmart",
        "phone": "+1-870-203-7009",
        "ref:walmart": "6943",
        "shop": "supermarket",
        "website": "https://www.walmart.com/store/6943/jonesboro-ar/whats-new"
      },
      "geometry": {
        "type": "Point",
        "coordinates": [
          -90.671274,
          35.8240219
        ]
      },
      "id": "node/5315596537"
    },
    {
      "type": "Feature",
      "properties": {
        "@id": "node/5315596552",
        "addr:city": "Jonesboro",
        "addr:country": "US",
        "addr:full": "3319 Harrisburg Road",
        "addr:housenumber": "3319",
        "addr:postcode": "72404",
        "addr:state": "AR",
        "addr:street": "Harrisburg Road",
        "name": "Walmart Neighborhood Market",
        "opening_hours": "Mo-Su 06:00-24:00",
        "operator": "Walmart",
        "phone": "+1-870-203-7018",
        "ref:walmart": "6876",
        "shop": "supermarket",
        "website": "https://www.walmart.com/store/6876/jonesboro-ar/whats-new"
      },
      "geometry": {
        "type": "Point",
        "coordinates": [
          -90.698816,
          35.802834
        ]
      },
      "id": "node/5315596552"
    },
    {
      "type": "Feature",
      "properties": {
        "@id": "node/5315596690",
        "addr:city": "Hot Springs",
        "addr:country": "US",
        "addr:full": "1544 Malvern Ave",
        "addr:housenumber": "1544",
        "addr:postcode": "71901",
        "addr:state": "AR",
        "addr:street": "Malvern Avenue",
        "brand": "Walmart",
        "brand:wikidata": "Q483551",
        "brand:wikipedia": "en:Walmart",
        "name": "Walmart Neighborhood Market",
        "opening_hours": "Mo-Su 06:00-24:00",
        "operator": "Walmart",
        "operator:wikidata": "Q483551",
        "operator:wikipedia": "en:Walmart",
        "phone": "+1-501-262-7520",
        "ref:walmart": "5790",
        "shop": "supermarket",
        "website": "https://www.walmart.com/store/5790/hot-springs-ar/whats-new"
      },
      "geometry": {
        "type": "Point",
        "coordinates": [
          -93.0402,
          34.4944
        ]
      },
      "id": "node/5315596690"
    },
    {
      "type": "Feature",
      "properties": {
        "@id": "node/5315596691",
        "addr:city": "Hot Springs",
        "addr:country": "US",
        "addr:full": "1640 Airport Road",
        "addr:housenumber": "1640",
        "addr:postcode": "71913",
        "addr:state": "AR",
        "addr:street": "Airport Road",
        "brand": "Walmart",
        "brand:wikidata": "Q483551",
        "brand:wikipedia": "en:Walmart",
        "name": "Walmart Neighborhood Market",
        "opening_hours": "Mo-Su 06:00-24:00",
        "operator": "Walmart",
        "phone": "+1-501-262-7509",
        "ref:walmart": "5789",
        "shop": "supermarket",
        "website": "https://www.walmart.com/store/5789/hot-springs-ar/whats-new"
      },
      "geometry": {
        "type": "Point",
        "coordinates": [
          -93.141385,
          34.468587
        ]
      },
      "id": "node/5315596691"
    },
    {
      "type": "Feature",
      "properties": {
        "@id": "node/5315596693",
        "addr:city": "Paragould",
        "addr:country": "US",
        "addr:full": "2600 Linwood Dr",
        "addr:housenumber": "2600",
        "addr:postcode": "72450",
        "addr:state": "AR",
        "addr:street": "Linwood Drive",
        "name": "Walmart Neighborhood Market",
        "opening_hours": "Mo-Su 06:00-24:00",
        "operator": "Walmart",
        "phone": "+1-870-586-7946",
        "ref:walmart": "5780",
        "shop": "supermarket",
        "website": "https://www.walmart.com/store/5780/paragould-ar/whats-new"
      },
      "geometry": {
        "type": "Point",
        "coordinates": [
          -90.52319,
          36.030222
        ]
      },
      "id": "node/5315596693"
    },
    {
      "type": "Feature",
      "properties": {
        "@id": "node/5315597525",
        "addr:city": "Walnut Ridge",
        "addr:country": "US",
        "addr:full": "1600 W Main St",
        "addr:housenumber": "1600",
        "addr:postcode": "72476",
        "addr:state": "AR",
        "addr:street": "West Main Street",
        "name": "Walmart",
        "opening_hours": "Mo-Su 06:00-24:00",
        "operator": "Walmart",
        "phone": "+1-870-886-6605",
        "ref:walmart": "57",
        "shop": "supermarket",
        "website": "https://www.walmart.com/store/57/walnut-ridge-ar/whats-new"
      },
      "geometry": {
        "type": "Point",
        "coordinates": [
          -90.97439,
          36.07663
        ]
      },
      "id": "node/5315597525"
    },
    {
      "type": "Feature",
      "properties": {
        "@id": "node/5315597565",
        "addr:city": "Booneville",
        "addr:country": "US",
        "addr:full": "1400 East Main St",
        "addr:housenumber": "1400",
        "addr:postcode": "72927",
        "addr:state": "AR",
        "addr:street": "East Main Street",
        "name": "Walmart Supercenter",
        "opening_hours": "24/7",
        "operator": "Walmart",
        "phone": "+1-479-675-3688",
        "ref:walmart": "55",
        "shop": "supermarket",
        "website": "https://www.walmart.com/store/55/booneville-ar/whats-new"
      },
      "geometry": {
        "type": "Point",
        "coordinates": [
          -93.9018368,
          35.1433678
        ]
      },
      "id": "node/5315597565"
    },
    {
      "type": "Feature",
      "properties": {
        "@id": "node/5315597731",
        "addr:city": "El Dorado",
        "addr:country": "US",
        "addr:full": "2730 N West Ave",
        "addr:housenumber": "2730",
        "addr:postcode": "71730",
        "addr:state": "AR",
        "addr:street": "North West Avenue",
        "brand": "Walmart",
        "brand:wikidata": "Q483551",
        "brand:wikipedia": "en:Walmart",
        "name": "Walmart Supercenter",
        "opening_hours": "24/7",
        "operator": "Walmart",
        "phone": "+1-870-862-2128",
        "ref:walmart": "530",
        "shop": "supermarket",
        "website": "https://www.walmart.com/store/530/el-dorado-ar/whats-new"
      },
      "geometry": {
        "type": "Point",
        "coordinates": [
          -92.6686538,
          33.2420091
        ]
      },
      "id": "node/5315597731"
    },
    {
      "type": "Feature",
      "properties": {
        "@id": "node/5315597772",
        "addr:city": "Hot Springs",
        "addr:country": "US",
        "addr:full": "1601 Albert Pike Rd",
        "addr:housenumber": "1601",
        "addr:postcode": "71913",
        "addr:state": "AR",
        "addr:street": "Albert Pike Road",
        "brand": "Walmart",
        "brand:wikidata": "Q483551",
        "brand:wikipedia": "en:Walmart",
        "name": "Walmart Supercenter",
        "opening_hours": "24/7",
        "operator": "Walmart",
        "operator:wikidata": "Q483551",
        "operator:wikipedia": "en:Walmart",
        "phone": "+1-501-624-2498",
        "ref:walmart": "52",
        "shop": "supermarket",
        "website": "https://www.walmart.com/store/52/hot-springs-ar/whats-new"
      },
      "geometry": {
        "type": "Point",
        "coordinates": [
          -93.089251,
          34.490929
        ]
      },
      "id": "node/5315597772"
    },
    {
      "type": "Feature",
      "properties": {
        "@id": "node/5315597955",
        "addr:city": "Bentonville",
        "addr:country": "US",
        "addr:housenumber": "906",
        "addr:postcode": "72712",
        "addr:state": "AR",
        "addr:street": "Southwest Regional Airport Boulevard",
        "brand": "Walmart",
        "brand:wikidata": "Q483551",
        "brand:wikipedia": "en:Walmart",
        "name": "Walmart Neighborhood Market",
        "opening_hours": "Mo-Su 06:00-24:00",
        "operator": "Walmart",
        "phone": "+1-479-268-7678",
        "ref:walmart": "4686",
        "shop": "supermarket",
        "website": "https://www.walmart.com/store/4686/bentonville-ar/whats-new"
      },
      "geometry": {
        "type": "Point",
        "coordinates": [
          -94.223909,
          36.337252
        ]
      },
      "id": "node/5315597955"
    },
    {
      "type": "Feature",
      "properties": {
        "@id": "node/5315597969",
        "addr:city": "Marion",
        "addr:country": "US",
        "addr:full": "2100 Highway 77",
        "addr:housenumber": "2100",
        "addr:postcode": "72364",
        "addr:state": "AR",
        "addr:street": "Highway 77",
        "name": "Walmart Neighborhood Market",
        "opening_hours": "Mo-Su 06:00-24:00",
        "operator": "Walmart",
        "phone": "+1-870-394-7308",
        "ref:walmart": "4654",
        "shop": "supermarket",
        "website": "https://www.walmart.com/store/4654/marion-ar/whats-new"
      },
      "geometry": {
        "type": "Point",
        "coordinates": [
          -90.182488,
          35.197986
        ]
      },
      "id": "node/5315597969"
    },
    {
      "type": "Feature",
      "properties": {
        "@id": "node/5315598010",
        "addr:city": "Jonesboro",
        "addr:country": "US",
        "addr:full": "1815 E Highland Dr",
        "addr:housenumber": "1815",
        "addr:postcode": "72401",
        "addr:state": "AR",
        "addr:street": "East Highland Drive",
        "name": "Walmart Supercenter",
        "opening_hours": "24/7",
        "operator": "Walmart",
        "phone": "+1-870-931-5001",
        "ref:walmart": "45",
        "shop": "supermarket",
        "website": "https://www.walmart.com/store/45/jonesboro-ar/whats-new"
      },
      "geometry": {
        "type": "Point",
        "coordinates": [
          -90.685267,
          35.81895
        ]
      },
      "id": "node/5315598010"
    },
    {
      "type": "Feature",
      "properties": {
        "@id": "node/5315598202",
        "addr:city": "Huntsville",
        "addr:country": "US",
        "addr:full": "157 Gary Hatfield Way",
        "addr:housenumber": "157",
        "addr:postcode": "72740",
        "addr:state": "AR",
        "addr:street": "Gary Hatfield Way",
        "brand": "Walmart",
        "brand:wikidata": "Q483551",
        "brand:wikipedia": "en:Walmart",
        "name": "Walmart Supercenter",
        "opening_hours": "24/7",
        "operator": "Walmart",
        "phone": "+1-479-738-2001",
        "ref:walmart": "373",
        "shop": "supermarket",
        "website": "https://www.walmart.com/store/373/huntsville-ar/whats-new"
      },
      "geometry": {
        "type": "Point",
        "coordinates": [
          -93.7159682,
          36.1128042
        ]
      },
      "id": "node/5315598202"
    },
    {
      "type": "Feature",
      "properties": {
        "@id": "node/5315598252",
        "addr:city": "Paragould",
        "addr:country": "US",
        "addr:full": "2802 W Kingshighway",
        "addr:housenumber": "2802",
        "addr:postcode": "72450",
        "addr:state": "AR",
        "addr:street": "West Kingshighway",
        "name": "Walmart Supercenter",
        "opening_hours": "24/7",
        "operator": "Walmart",
        "phone": "+1-870-236-9707",
        "ref:walmart": "36",
        "shop": "supermarket",
        "website": "https://www.walmart.com/store/36/paragould-ar/whats-new"
      },
      "geometry": {
        "type": "Point",
        "coordinates": [
          -90.52294,
          36.057305
        ]
      },
      "id": "node/5315598252"
    },
    {
      "type": "Feature",
      "properties": {
        "@id": "node/5315598320",
        "addr:city": "Fordyce",
        "addr:country": "US",
        "addr:full": "1123 Highway 79 167 Byp",
        "addr:housenumber": "1123",
        "addr:postcode": "71742",
        "addr:state": "AR",
        "addr:street": "Highway 79 167 Bypass",
        "name": "Walmart",
        "opening_hours": "Mo-Su 07:00-22:00",
        "operator": "Walmart",
        "phone": "+1-870-352-5167",
        "ref:walmart": "339",
        "shop": "supermarket",
        "website": "https://www.walmart.com/store/339/fordyce-ar/whats-new"
      },
      "geometry": {
        "type": "Point",
        "coordinates": [
          -92.435566,
          33.820498
        ]
      },
      "id": "node/5315598320"
    },
    {
      "type": "Feature",
      "properties": {
        "@id": "node/5315598844",
        "addr:city": "Pine Bluff",
        "addr:country": "US",
        "addr:full": "5501 S Olive St",
        "addr:housenumber": "5501",
        "addr:postcode": "71603",
        "addr:state": "AR",
        "addr:street": "South Olive Street",
        "name": "Walmart Supercenter",
        "opening_hours": "24/7",
        "operator": "Walmart",
        "phone": "+1-870-534-7054",
        "ref:walmart": "3331",
        "shop": "supermarket",
        "website": "https://www.walmart.com/store/3331/pine-bluff-ar/whats-new"
      },
      "geometry": {
        "type": "Point",
        "coordinates": [
          -92.003129,
          34.173882
        ]
      },
      "id": "node/5315598844"
    },
    {
      "type": "Feature",
      "properties": {
        "@id": "node/5315598892",
        "addr:city": "Conway",
        "addr:country": "US",
        "addr:full": "2550 Prince St",
        "addr:housenumber": "2550",
        "addr:postcode": "72034",
        "addr:state": "AR",
        "addr:street": "Prince Street",
        "brand": "Walmart",
        "brand:wikidata": "Q483551",
        "brand:wikipedia": "en:Walmart",
        "name": "Walmart Neighborhood Market",
        "opening_hours": "Mo-Su 06:00-24:00",
        "operator": "Walmart",
        "phone": "+1-501-205-7262",
        "ref:walmart": "3168",
        "shop": "supermarket",
        "website": "https://www.walmart.com/store/3168/conway-ar/whats-new"
      },
      "geometry": {
        "type": "Point",
        "coordinates": [
          -92.4631765,
          35.0944854
        ]
      },
      "id": "node/5315598892"
    },
    {
      "type": "Feature",
      "properties": {
        "@id": "node/5315599012",
        "addr:city": "Heber Spgs",
        "addr:country": "US",
        "addr:full": "1500 Hwy 25B",
        "addr:housenumber": "1500",
        "addr:postcode": "72543",
        "addr:state": "AR",
        "addr:street": "Highway 25B",
        "name": "Walmart Supercenter",
        "opening_hours": "24/7",
        "operator": "Walmart",
        "phone": "+1-501-362-8188",
        "ref:walmart": "281",
        "shop": "supermarket",
        "website": "https://www.walmart.com/store/281/heber-springs-ar/whats-new"
      },
      "geometry": {
        "type": "Point",
        "coordinates": [
          -92.032234,
          35.507388
        ]
      },
      "id": "node/5315599012"
    },
    {
      "type": "Feature",
      "properties": {
        "@id": "node/5315599017",
        "addr:city": "De Queen",
        "addr:country": "US",
        "addr:full": "926 E Collin Raye Dr",
        "addr:housenumber": "926",
        "addr:postcode": "71832",
        "addr:state": "AR",
        "addr:street": "East Collin Raye Drive",
        "name": "Walmart Supercenter",
        "opening_hours": "24/7",
        "operator": "Walmart",
        "phone": "+1-870-642-2794",
        "ref:walmart": "279",
        "shop": "supermarket",
        "website": "https://www.walmart.com/store/279/de-queen-ar/whats-new"
      },
      "geometry": {
        "type": "Point",
        "coordinates": [
          -94.319058,
          34.043471
        ]
      },
      "id": "node/5315599017"
    },
    {
      "type": "Feature",
      "properties": {
        "@id": "node/5315599485",
        "addr:city": "Conway",
        "addr:country": "US",
        "addr:full": "3900 Dave Ward Dr",
        "addr:housenumber": "3900",
        "addr:postcode": "72034",
        "addr:state": "AR",
        "addr:street": "Dave Ward Drive",
        "brand": "Walmart",
        "brand:wikidata": "Q483551",
        "brand:wikipedia": "en:Walmart",
        "name": "Walmart Supercenter",
        "opening_hours": "24/7",
        "operator": "Walmart",
        "phone": "+1-501-328-9570",
        "ref:walmart": "2575",
        "shop": "supermarket",
        "website": "https://www.walmart.com/store/2575/conway-ar/whats-new",
        "wheelchair": "yes"
      },
      "geometry": {
        "type": "Point",
        "coordinates": [
          -92.4951777,
          35.0724306
        ]
      },
      "id": "node/5315599485"
    },
    {
      "type": "Feature",
      "properties": {
        "@id": "node/5315599561",
        "addr:city": "Paris",
        "addr:country": "US",
        "addr:full": "1501 E Walnut St",
        "addr:housenumber": "1501",
        "addr:postcode": "72855",
        "addr:state": "AR",
        "addr:street": "East Walnut Street",
        "name": "Walmart",
        "opening_hours": "Mo-Su 06:00-22:00",
        "operator": "Walmart",
        "phone": "+1-479-963-2152",
        "ref:walmart": "230",
        "shop": "supermarket",
        "website": "https://www.walmart.com/store/230/paris-ar/whats-new"
      },
      "geometry": {
        "type": "Point",
        "coordinates": [
          -93.716195,
          35.293369
        ]
      },
      "id": "node/5315599561"
    },
    {
      "type": "Feature",
      "properties": {
        "@id": "node/5315599565",
        "addr:city": "Trumann",
        "addr:country": "US",
        "addr:full": "512 Industrial Park Dr",
        "addr:housenumber": "512",
        "addr:postcode": "72472",
        "addr:state": "AR",
        "addr:street": "Industrial Park Drive",
        "name": "Walmart Supercenter",
        "opening_hours": "24/7",
        "operator": "Walmart",
        "phone": "+1-870-483-1971",
        "ref:walmart": "229",
        "shop": "supermarket",
        "website": "https://www.walmart.com/store/229/trumann-ar/whats-new"
      },
      "geometry": {
        "type": "Point",
        "coordinates": [
          -90.549868,
          35.681492
        ]
      },
      "id": "node/5315599565"
    },
    {
      "type": "Feature",
      "properties": {
        "@id": "node/5315601375",
        "addr:city": "Ash Flat",
        "addr:country": "US",
        "addr:full": "219 Highway 412",
        "addr:housenumber": "219",
        "addr:postcode": "72513",
        "addr:state": "AR",
        "addr:street": "Highway 412",
        "name": "Walmart Supercenter",
        "opening_hours": "24/7",
        "operator": "Walmart",
        "phone": "+1-870-994-7520",
        "ref:walmart": "160",
        "shop": "supermarket",
        "website": "https://www.walmart.com/store/160/ash-flat-ar/whats-new"
      },
      "geometry": {
        "type": "Point",
        "coordinates": [
          -91.596294,
          36.241189
        ]
      },
      "id": "node/5315601375"
    },
    {
      "type": "Feature",
      "properties": {
        "@id": "node/5315601376",
        "addr:city": "Van Buren",
        "addr:country": "US",
        "addr:full": "2214 Fayetteville Rd",
        "addr:housenumber": "2214",
        "addr:postcode": "72956",
        "addr:state": "AR",
        "addr:street": "Fayetteville Road",
        "name": "Walmart Supercenter",
        "opening_hours": "24/7",
        "operator": "Walmart",
        "phone": "+1-479-474-2314",
        "ref:walmart": "16",
        "shop": "supermarket",
        "website": "https://www.walmart.com/store/16/van-buren-ar/whats-new"
      },
      "geometry": {
        "type": "Point",
        "coordinates": [
          -94.353427,
          35.469113
        ]
      },
      "id": "node/5315601376"
    },
    {
      "type": "Feature",
      "properties": {
        "@id": "node/5315601768",
        "addr:city": "Ashdown",
        "addr:country": "US",
        "addr:full": "297 Hwy 32 By-Pass E",
        "addr:housenumber": "297",
        "addr:postcode": "71822",
        "addr:state": "AR",
        "addr:street": "Highway 32 By-Pass East",
        "name": "Walmart Supercenter",
        "opening_hours": "24/7",
        "operator": "Walmart",
        "phone": "+1-870-898-5126",
        "ref:walmart": "133",
        "shop": "supermarket",
        "website": "https://www.walmart.com/store/133/ashdown-ar/whats-new"
      },
      "geometry": {
        "type": "Point",
        "coordinates": [
          -94.10924,
          33.657167
        ]
      },
      "id": "node/5315601768"
    },
    {
      "type": "Feature",
      "properties": {
        "@id": "node/5315601803",
        "addr:city": "Little Rock",
        "addr:country": "US",
        "addr:full": "8801 Baseline Rd",
        "addr:housenumber": "8801",
        "addr:postcode": "72209",
        "addr:state": "AR",
        "addr:street": "Baseline Road",
        "name": "Walmart Supercenter",
        "opening_hours": "Mo-Su 06:00-24:00",
        "operator": "Walmart",
        "phone": "+1-501-565-0274",
        "ref:walmart": "124",
        "shop": "supermarket",
        "website": "https://www.walmart.com/store/124/little-rock-ar/whats-new"
      },
      "geometry": {
        "type": "Point",
        "coordinates": [
          -92.377089,
          34.667147
        ]
      },
      "id": "node/5315601803"
    },
    {
      "type": "Feature",
      "properties": {
        "@id": "node/5315602263",
        "addr:city": "Mountain View",
        "addr:country": "US",
        "addr:full": "409 Sylamore Ave",
        "addr:housenumber": "409",
        "addr:postcode": "72560",
        "addr:state": "AR",
        "addr:street": "Sylamore Avenue",
        "name": "Walmart Supercenter",
        "opening_hours": "Mo-Su 06:00-24:00",
        "operator": "Walmart",
        "phone": "+1-870-269-4395",
        "ref:walmart": "1114",
        "shop": "supermarket",
        "website": "https://www.walmart.com/store/1114/mountain-view-ar/whats-new"
      },
      "geometry": {
        "type": "Point",
        "coordinates": [
          -92.101796,
          35.867227
        ]
      },
      "id": "node/5315602263"
    },
    {
      "type": "Feature",
      "properties": {
        "@id": "node/5315602274",
        "addr:city": "Mountain Home",
        "addr:country": "US",
        "addr:full": "65 Wal Mart Dr",
        "addr:housenumber": "65",
        "addr:postcode": "72653",
        "addr:state": "AR",
        "addr:street": "Wal Mart Drive",
        "name": "Walmart Supercenter",
        "opening_hours": "24/7",
        "operator": "Walmart",
        "phone": "+1-870-492-9299",
        "ref:walmart": "11",
        "shop": "supermarket",
        "website": "https://www.walmart.com/store/11/mountain-home-ar/whats-new",
        "wheelchair": "yes"
      },
      "geometry": {
        "type": "Point",
        "coordinates": [
          -92.3410256,
          36.3549565
        ]
      },
      "id": "node/5315602274"
    },
    {
      "type": "Feature",
      "properties": {
        "@id": "node/5315602311",
        "addr:city": "Stuttgart",
        "addr:country": "US",
        "addr:full": "406 E 22Nd St",
        "addr:housenumber": "406",
        "addr:postcode": "72160",
        "addr:state": "AR",
        "addr:street": "East 22nd Street",
        "name": "Walmart Supercenter",
        "opening_hours": "24/7",
        "operator": "Walmart",
        "phone": "+1-870-673-3349",
        "ref:walmart": "102",
        "shop": "supermarket",
        "website": "https://www.walmart.com/store/102/stuttgart-ar/whats-new"
      },
      "geometry": {
        "type": "Point",
        "coordinates": [
          -91.549074,
          34.477048
        ]
      },
      "id": "node/5315602311"
    },
    {
      "type": "Feature",
      "properties": {
        "@id": "node/5341795042",
        "addr:city": "Mayflower",
        "addr:housenumber": "582",
        "addr:postcode": "72106",
        "addr:state": "AR",
        "addr:street": "AR 365",
        "name": "Harps Food Store",
        "operator": "Harps",
        "shop": "supermarket"
      },
      "geometry": {
        "type": "Point",
        "coordinates": [
          -92.4237251,
          34.9657707
        ]
      },
      "id": "node/5341795042"
    },
    {
      "type": "Feature",
      "properties": {
        "@id": "node/5551782131",
        "name": "Superstop",
        "shop": "convenience"
      },
      "geometry": {
        "type": "Point",
        "coordinates": [
          -92.0612719,
          34.9471426
        ]
      },
      "id": "node/5551782131"
    },
    {
      "type": "Feature",
      "properties": {
        "@id": "node/5600867015",
        "addr:city": "Cedarville",
        "addr:housenumber": "8848",
        "addr:postcode": "72932",
        "addr:state": "AR",
        "addr:street": "AR-59",
        "name": "Harp's",
        "shop": "supermarket"
      },
      "geometry": {
        "type": "Point",
        "coordinates": [
          -94.3665268,
          35.5661861
        ]
      },
      "id": "node/5600867015"
    },
    {
      "type": "Feature",
      "properties": {
        "@id": "node/5646073262",
        "name": "Quick Stop",
        "shop": "convenience"
      },
      "geometry": {
        "type": "Point",
        "coordinates": [
          -90.3844772,
          36.1862668
        ]
      },
      "id": "node/5646073262"
    },
    {
      "type": "Feature",
      "properties": {
        "@id": "node/5811295137",
        "name": "Superstop",
        "shop": "convenience"
      },
      "geometry": {
        "type": "Point",
        "coordinates": [
          -94.2255823,
          35.4910316
        ]
      },
      "id": "node/5811295137"
    },
    {
      "type": "Feature",
      "properties": {
        "@id": "node/5811314511",
        "shop": "convenience"
      },
      "geometry": {
        "type": "Point",
        "coordinates": [
          -94.2265925,
          35.4877082
        ]
      },
      "id": "node/5811314511"
    },
    {
      "type": "Feature",
      "properties": {
        "@id": "node/5812723042",
        "name": "Superstop",
        "shop": "convenience"
      },
      "geometry": {
        "type": "Point",
        "coordinates": [
          -92.2012792,
          34.7773859
        ]
      },
      "id": "node/5812723042"
    },
    {
      "type": "Feature",
      "properties": {
        "@id": "node/5812723044",
        "addr:city": "North Little Rock",
        "addr:housenumber": "2511",
        "addr:postcode": "72117",
        "addr:state": "AR",
        "addr:street": "HWY 161",
        "name": "Wins Mart",
        "payment:cash": "yes",
        "payment:credit_cards": "yes",
        "payment:debit_cards": "yes",
        "payment:mastercard": "yes",
        "payment:visa": "yes",
        "shop": "convenience"
      },
      "geometry": {
        "type": "Point",
        "coordinates": [
          -92.201556,
          34.7767217
        ]
      },
      "id": "node/5812723044"
    },
    {
      "type": "Feature",
      "properties": {
        "@id": "node/5812723045",
        "shop": "convenience"
      },
      "geometry": {
        "type": "Point",
        "coordinates": [
          -92.2025723,
          34.7774496
        ]
      },
      "id": "node/5812723045"
    },
    {
      "type": "Feature",
      "properties": {
        "@id": "node/5812723047",
        "shop": "convenience"
      },
      "geometry": {
        "type": "Point",
        "coordinates": [
          -92.2002714,
          34.7765649
        ]
      },
      "id": "node/5812723047"
    },
    {
      "type": "Feature",
      "properties": {
        "@id": "node/5873575052",
        "addr:city": "Little Rock",
        "addr:housenumber": "7400",
        "addr:postcode": "72207",
        "addr:state": "AR",
        "addr:street": "Cantrell Road",
        "brand:wikipedia": "en:Royal Dutch Shell",
        "fuel:midgrade": "yes",
        "fuel:premium": "yes",
        "fuel:regular": "yes",
        "name": "Superstop",
        "phone": "+1-501-666-5056",
        "self_service": "yes",
        "shop": "convenience"
      },
      "geometry": {
        "type": "Point",
        "coordinates": [
          -92.3558521,
          34.7713057
        ]
      },
      "id": "node/5873575052"
    },
    {
      "type": "Feature",
      "properties": {
        "@id": "node/5898048509",
        "name": "Natural Grocery",
        "shop": "supermarket",
        "wheelchair": "yes"
      },
      "geometry": {
        "type": "Point",
        "coordinates": [
          -92.400444,
          34.7923727
        ]
      },
      "id": "node/5898048509"
    },
    {
      "type": "Feature",
      "properties": {
        "@id": "node/5903869787",
        "name": "Alma Shortstop",
        "shop": "convenience"
      },
      "geometry": {
        "type": "Point",
        "coordinates": [
          -94.2200229,
          35.5494165
        ]
      },
      "id": "node/5903869787"
    },
    {
      "type": "Feature",
      "properties": {
        "@id": "node/5912642185",
        "addr:housenumber": "3401",
        "addr:street": "Cavanaugh Road",
        "amenity": "gasoline",
        "name": "Litlefield Travel Plaza",
        "opening_hours": "24/7",
        "phone": "+1 479-646-8186",
        "shop": "convenience",
        "website": "https://www.littlefieldexpress.com/"
      },
      "geometry": {
        "type": "Point",
        "coordinates": [
          -94.4011201,
          35.3139693
        ]
      },
      "id": "node/5912642185"
    },
    {
      "type": "Feature",
      "properties": {
        "@id": "node/6104212837",
        "addr:city": "Arkadelphia",
        "addr:housenumber": "2750",
        "addr:postcode": "71923",
        "addr:state": "AR",
        "addr:street": "Pine Street",
        "brand": "Brookshire's",
        "brand:wikidata": "Q4975085",
        "brand:wikipedia": "en:Brookshire Grocery Company",
        "name": "Brookshire's",
        "phone": "+1-870-246-6167",
        "shop": "supermarket"
      },
      "geometry": {
        "type": "Point",
        "coordinates": [
          -93.08485,
          34.1222744
        ]
      },
      "id": "node/6104212837"
    },
    {
      "type": "Feature",
      "properties": {
        "@id": "node/6104237267",
        "addr:city": "Ashdown",
        "addr:housenumber": "1310",
        "addr:postcode": "71822",
        "addr:state": "AR",
        "addr:street": "South Constitution Avenue",
        "name": "Brookshire's",
        "phone": "+1-870-898-3301",
        "shop": "supermarket"
      },
      "geometry": {
        "type": "Point",
        "coordinates": [
          -94.1145408,
          33.65967
        ]
      },
      "id": "node/6104237267"
    },
    {
      "type": "Feature",
      "properties": {
        "@id": "node/6104521473",
        "addr:city": "Camden",
        "addr:housenumber": "1345",
        "addr:postcode": "71701",
        "addr:state": "AR",
        "addr:street": "Country Club Road",
        "name": "Brookshire's",
        "phone": "+1-870-836-3900",
        "shop": "supermarket"
      },
      "geometry": {
        "type": "Point",
        "coordinates": [
          -92.853449,
          33.5754709
        ]
      },
      "id": "node/6104521473"
    },
    {
      "type": "Feature",
      "properties": {
        "@id": "node/6106864103",
        "addr:city": "El Dorado",
        "addr:housenumber": "2202",
        "addr:postcode": "71730",
        "addr:state": "AR",
        "addr:street": "North West Avenue",
        "brand": "Brookshire's",
        "brand:wikidata": "Q4975085",
        "brand:wikipedia": "en:Brookshire Grocery Company",
        "name": "Brookshire's",
        "phone": "+1-870-862-8381",
        "shop": "supermarket"
      },
      "geometry": {
        "type": "Point",
        "coordinates": [
          -92.6663619,
          33.2345763
        ]
      },
      "id": "node/6106864103"
    },
    {
      "type": "Feature",
      "properties": {
        "@id": "node/6106892940",
        "addr:city": "Pine Bluff",
        "addr:housenumber": "1605",
        "addr:postcode": "71601",
        "addr:state": "AR",
        "addr:street": "East Harding Avenue",
        "name": "Super 1 Foods",
        "phone": "+1-870-536-1889",
        "shop": "supermarket"
      },
      "geometry": {
        "type": "Point",
        "coordinates": [
          -91.9845917,
          34.2138543
        ]
      },
      "id": "node/6106892940"
    },
    {
      "type": "Feature",
      "properties": {
        "@id": "node/6106945932",
        "addr:city": "Pine Bluff",
        "addr:housenumber": "5805",
        "addr:postcode": "71602",
        "addr:state": "AR",
        "addr:street": "Dollarway Road",
        "name": "Super 1 Foods",
        "phone": "+1-870-247-5916",
        "shop": "supermarket"
      },
      "geometry": {
        "type": "Point",
        "coordinates": [
          -92.0676676,
          34.2485317
        ]
      },
      "id": "node/6106945932"
    },
    {
      "type": "Feature",
      "properties": {
        "@id": "node/6135480647",
        "addr:city": "Hope",
        "addr:housenumber": "909",
        "addr:postcode": "71801",
        "addr:state": "AR",
        "addr:street": "North Hervey Street",
        "name": "Super 1 Foods",
        "phone": "+1-870-777-5001",
        "shop": "supermarket"
      },
      "geometry": {
        "type": "Point",
        "coordinates": [
          -93.5994218,
          33.6766073
        ]
      },
      "id": "node/6135480647"
    },
    {
      "type": "Feature",
      "properties": {
        "@id": "node/6310949066",
        "brand": "Kroger",
        "brand:wikidata": "Q153417",
        "name": "Kroger",
        "shop": "supermarket"
      },
      "geometry": {
        "type": "Point",
        "coordinates": [
          -92.3248568,
          34.7567967
        ]
      },
      "id": "node/6310949066"
    },
    {
      "type": "Feature",
      "properties": {
        "@id": "node/6379093154",
        "addr:city": "Fort Smith",
        "addr:housenumber": "2112",
        "addr:postcode": "72901",
        "addr:state": "AR",
        "addr:street": "Dodson Avenue",
        "brand": "Kum & Go",
        "brand:wikidata": "Q6443340",
        "name": "Kum & Go",
        "shop": "convenience"
      },
      "geometry": {
        "type": "Point",
        "coordinates": [
          -94.4101644,
          35.3719409
        ]
      },
      "id": "node/6379093154"
    },
    {
      "type": "Feature",
      "properties": {
        "@id": "node/6468544692",
        "name": "412 Express",
        "shop": "convenience"
      },
      "geometry": {
        "type": "Point",
        "coordinates": [
          -93.7089141,
          36.112928
        ]
      },
      "id": "node/6468544692"
    },
    {
      "type": "Feature",
      "properties": {
        "@id": "node/6468545059",
        "name": "412 Express",
        "shop": "convenience"
      },
      "geometry": {
        "type": "Point",
        "coordinates": [
          -93.7089141,
          36.112928
        ]
      },
      "id": "node/6468545059"
    },
    {
      "type": "Feature",
      "properties": {
        "@id": "node/6540968646",
        "addr:city": "Lepanto",
        "addr:housenumber": "132",
        "addr:postcode": "72354",
        "addr:state": "AR",
        "addr:street": "Greenwood Avenue",
        "air_conditioning": "yes",
        "description": "Small, family owned grocery store. Has butcher shop.",
        "internet_access": "no",
        "name": "Hometown Supermarket",
        "opening_hours": "Mo-Sa 08:00-20:00",
        "operator": "Bill Manget",
        "payment:cash": "yes",
        "payment:debit_cards": "yes",
        "payment:discover_card": "yes",
        "payment:mastercard": "yes",
        "payment:visa": "yes",
        "phone": "1(870) 475-2319",
        "shop": "supermarket",
        "wheelchair": "yes"
      },
      "geometry": {
        "type": "Point",
        "coordinates": [
          -90.3316301,
          35.6148556
        ]
      },
      "id": "node/6540968646"
    },
    {
      "type": "Feature",
      "properties": {
        "@id": "node/6596528312",
        "amenity": "marketplace",
        "name": "Junktion Flea Market"
      },
      "geometry": {
        "type": "Point",
        "coordinates": [
          -92.4418993,
          35.1073075
        ]
      },
      "id": "node/6596528312"
    },
    {
      "type": "Feature",
      "properties": {
        "@id": "node/6645561084",
        "description": "Semi parking area, deli, Non ethynol gas, diesel, Dine-in area",
        "name": "8 Mile Store",
        "shop": "convenience"
      },
      "geometry": {
        "type": "Point",
        "coordinates": [
          -92.3050575,
          35.0774147
        ]
      },
      "id": "node/6645561084"
    },
    {
      "type": "Feature",
      "properties": {
        "@id": "node/6935360071",
        "addr:city": "Fort Smith",
        "addr:housenumber": "3901",
        "addr:postcode": "72904",
        "addr:state": "AR",
        "addr:street": "O Street North",
        "shop": "supermarket"
      },
      "geometry": {
        "type": "Point",
        "coordinates": [
          -94.3871634,
          35.3917987
        ]
      },
      "id": "node/6935360071"
    },
    {
      "type": "Feature",
      "properties": {
        "@id": "node/6936032864",
        "addr:city": "Pocahontas",
        "addr:housenumber": "1609",
        "addr:postcode": "72455",
        "addr:state": "AR",
        "addr:street": "North Thomasville Street",
        "name": "Harps Food Store",
        "shop": "supermarket"
      },
      "geometry": {
        "type": "Point",
        "coordinates": [
          -90.9757761,
          36.2723963
        ]
      },
      "id": "node/6936032864"
    },
    {
      "type": "Feature",
      "properties": {
        "@id": "node/6944226755",
        "name": "Zone Mart",
        "shop": "convenience",
        "source": "Bing"
      },
      "geometry": {
        "type": "Point",
        "coordinates": [
          -92.3589217,
          34.8120092
        ]
      },
      "id": "node/6944226755"
    },
    {
      "type": "Feature",
      "properties": {
        "@id": "node/6944231510",
        "shop": "convenience",
        "source": "Bing"
      },
      "geometry": {
        "type": "Point",
        "coordinates": [
          -92.3920438,
          34.884383
        ]
      },
      "id": "node/6944231510"
    },
    {
      "type": "Feature",
      "properties": {
        "@id": "node/6965335737",
        "shop": "convenience",
        "source": "Bing"
      },
      "geometry": {
        "type": "Point",
        "coordinates": [
          -92.3823788,
          34.8837266
        ]
      },
      "id": "node/6965335737"
    },
    {
      "type": "Feature",
      "properties": {
        "@id": "node/7050483667",
        "addr:city": "Marianna",
        "addr:housenumber": "460",
        "addr:postcode": "72360",
        "addr:state": "AR",
        "addr:street": "South Alabama Street",
        "contact:fax": "(870) 295-2434",
        "name": "Edwards Food giant",
        "phone": "(870) 295-9311",
        "shop": "supermarket",
        "website": "https://www.edwardsfoodgiant.com/"
      },
      "geometry": {
        "type": "Point",
        "coordinates": [
          -90.7683292,
          34.7619145
        ]
      },
      "id": "node/7050483667"
    },
    {
      "type": "Feature",
      "properties": {
        "@id": "node/7117486370",
        "shop": "supermarket"
      },
      "geometry": {
        "type": "Point",
        "coordinates": [
          -94.1181197,
          36.3105961
        ]
      },
      "id": "node/7117486370"
    },
    {
      "type": "Feature",
      "properties": {
        "@id": "node/7234506096",
        "brand": "Murphy Express",
        "brand:wikidata": "Q19604459",
        "brand:wikipedia": "en:Murphy USA",
        "name": "Murphy Express",
        "shop": "convenience"
      },
      "geometry": {
        "type": "Point",
        "coordinates": [
          -92.4138422,
          34.7545072
        ]
      },
      "id": "node/7234506096"
    },
    {
      "type": "Feature",
      "properties": {
        "@id": "node/7280852413",
        "addr:city": "Russellville",
        "addr:housenumber": "1003",
        "addr:postcode": "72801",
        "addr:state": "AR",
        "addr:street": "West Main Street",
        "branch": "Pharmacy",
        "brand": "Kroger",
        "brand:wikidata": "Q153417",
        "brand:wikipedia": "en:Kroger",
        "name": "Kroger",
        "opening_hours": "Mo-Fr 08:00-20:00; Sa 09:00-18:00; Su 10:00-17:00",
        "operator": "Kroger",
        "shop": "supermarket"
      },
      "geometry": {
        "type": "Point",
        "coordinates": [
          -93.1423996,
          35.2803167
        ]
      },
      "id": "node/7280852413"
    },
    {
      "type": "Feature",
      "properties": {
        "@id": "node/7575059535",
        "addr:city": "Bentonville",
        "addr:country": "US",
        "addr:housenumber": "1400",
        "addr:postcode": "72712",
        "addr:state": "AR",
        "addr:street": "North Walton Boulevard",
        "brand": "Walmart",
        "brand:wikidata": "Q483551",
        "brand:wikipedia": "en:Walmart",
        "name": "Walmart Neighborhood Market",
        "opening_hours": "Mo-Su 06:00-24:00",
        "operator": "Walmart",
        "phone": "+1-479-268-9829",
        "ref:walmart": "4376",
        "shop": "supermarket",
        "website": "https://www.walmart.com/store/4376/bentonville-ar/whats-new"
      },
      "geometry": {
        "type": "Point",
        "coordinates": [
          -94.2193802,
          36.3891104
        ]
      },
      "id": "node/7575059535"
    },
    {
      "type": "Feature",
      "properties": {
        "@id": "node/7682055228",
        "amenity": "fuel",
        "brand": "Pilot",
        "brand:wikidata": "Q64128179",
        "brand:wikipedia": "en:Pilot Flying J",
        "fax": "+1 479 872 6103",
        "name": "Pilot Travel Center",
        "opening_hours": "24/7",
        "phone": "+1 479 872 6100",
        "shop": "convenience",
        "website": "https://locations.pilotflyingj.com/us/ar/springdale/5660-west-sunset-avenue",
        "wheelchair": "yes"
      },
      "geometry": {
        "type": "Point",
        "coordinates": [
          -94.1930168,
          36.1761462
        ]
      },
      "id": "node/7682055228"
    },
    {
      "type": "Feature",
      "properties": {
        "@id": "node/7732259994",
        "brand": "Kroger",
        "brand:wikidata": "Q153417",
        "brand:wikipedia": "en:Kroger",
        "name": "Kroger",
        "shop": "supermarket"
      },
      "geometry": {
        "type": "Point",
        "coordinates": [
          -92.2727776,
          34.7950914
        ]
      },
      "id": "node/7732259994"
    },
    {
      "type": "Feature",
      "properties": {
        "@id": "node/7734868792",
        "addr:street": "20383 Arch Street, Little Rock, AR 72206",
        "name": "Edwards Food Giant",
        "phone": "5018888274",
        "shop": "supermarket"
      },
      "geometry": {
        "type": "Point",
        "coordinates": [
          -92.3376,
          34.5639
        ]
      },
      "id": "node/7734868792"
    },
    {
      "type": "Feature",
      "properties": {
        "@id": "node/8026709285",
        "name": "World Food",
        "name:en": "India Grand Bazaar (World Food Mart)",
        "shop": "supermarket"
      },
      "geometry": {
        "type": "Point",
        "coordinates": [
          -94.1947589,
          36.3350122
        ]
      },
      "id": "node/8026709285"
    },
    {
      "type": "Feature",
      "properties": {
        "@id": "node/8165217244",
        "addr:city": "Mansfield",
        "addr:housenumber": "406",
        "addr:postcode": "72944",
        "addr:state": "AR",
        "addr:street": "Huntington Avenue",
        "name": "CV's",
        "shop": "supermarket"
      },
      "geometry": {
        "type": "Point",
        "coordinates": [
          -94.2488101,
          35.0633038
        ]
      },
      "id": "node/8165217244"
    },
    {
      "type": "Feature",
      "properties": {
        "@id": "node/8200240543",
        "brand": "Kum & Go",
        "brand:wikidata": "Q6443340",
        "brand:wikipedia": "en:Kum & Go",
        "name": "Kum & Go",
        "shop": "convenience"
      },
      "geometry": {
        "type": "Point",
        "coordinates": [
          -94.1846859,
          36.3428173
        ]
      },
      "id": "node/8200240543"
    },
    {
      "type": "Feature",
      "properties": {
        "@id": "node/8332382807",
        "name": "Harps Food Store",
        "shop": "supermarket"
      },
      "geometry": {
        "type": "Point",
        "coordinates": [
          -94.1059518,
          34.8975177
        ]
      },
      "id": "node/8332382807"
    },
    {
      "type": "Feature",
      "properties": {
        "@id": "node/8389289058",
        "addr:city": "West Memphis",
        "addr:housenumber": "300",
        "addr:postcode": "72301",
        "addr:state": "AR",
        "addr:street": "West Service Road",
        "addr:unit": "1",
        "brand": "Kroger",
        "brand:wikidata": "Q153417",
        "brand:wikipedia": "en:Kroger",
        "name": "Kroger",
        "shop": "supermarket"
      },
      "geometry": {
        "type": "Point",
        "coordinates": [
          -90.1920318,
          35.1681193
        ]
      },
      "id": "node/8389289058"
    },
    {
      "type": "Feature",
      "properties": {
        "@id": "node/8584510350",
        "shop": "convenience"
      },
      "geometry": {
        "type": "Point",
        "coordinates": [
          -89.8754624,
          35.9306717
        ]
      },
      "id": "node/8584510350"
    },
    {
      "type": "Feature",
      "properties": {
        "@id": "node/8584510379",
        "shop": "convenience"
      },
      "geometry": {
        "type": "Point",
        "coordinates": [
          -89.936046,
          35.7562798
        ]
      },
      "id": "node/8584510379"
    },
    {
      "type": "Feature",
      "properties": {
        "@id": "node/8586611062",
        "name": "Hays",
        "shop": "convenience"
      },
      "geometry": {
        "type": "Point",
        "coordinates": [
          -89.9006456,
          35.9277554
        ]
      },
      "id": "node/8586611062"
    },
    {
      "type": "Feature",
      "properties": {
        "@id": "node/8586611086",
        "name": "Hays",
        "shop": "supermarket"
      },
      "geometry": {
        "type": "Point",
        "coordinates": [
          -89.9106234,
          35.9356016
        ]
      },
      "id": "node/8586611086"
    },
    {
      "type": "Feature",
      "properties": {
        "@id": "node/8586611098",
        "brand": "Kroger",
        "brand:wikidata": "Q153417",
        "brand:wikipedia": "en:Kroger",
        "name": "Kroger",
        "shop": "supermarket"
      },
      "geometry": {
        "type": "Point",
        "coordinates": [
          -89.9069971,
          35.9371859
        ]
      },
      "id": "node/8586611098"
    },
    {
      "type": "Feature",
      "properties": {
        "@id": "node/8654036305",
        "addr:city": "Fort Smith",
        "addr:country": "US",
        "addr:county": "Sebastian, AR",
        "addr:housenumber": "2201",
        "addr:postcode": "72901",
        "addr:state": "AR",
        "addr:street": "South Zero Street",
        "brand": "Aldi",
        "brand:wikidata": "Q125054",
        "brand:wikipedia": "en:Aldi",
        "name": "Aldi",
        "opening_hours": "Mo-Su 09:00-20:00",
        "payment:american_express": "yes",
        "payment:apple_pay": "yes",
        "payment:cheque": "no",
        "payment:coins": "yes",
        "payment:debit_cards": "yes",
        "payment:discover_card": "yes",
        "payment:ebt": "yes",
        "payment:google_pay": "yes",
        "payment:mastercard": "yes",
        "payment:notes": "yes",
        "payment:snap": "yes",
        "payment:visa": "yes",
        "payment:wic": "no",
        "shop": "supermarket",
        "website": "https://www.aldi.us/"
      },
      "geometry": {
        "type": "Point",
        "coordinates": [
          -94.4113621,
          35.3282976
        ]
      },
      "id": "node/8654036305"
    },
    {
      "type": "Feature",
      "properties": {
        "@id": "node/8663757850",
        "name": "Gary's Food Mart",
        "shop": "convenience"
      },
      "geometry": {
        "type": "Point",
        "coordinates": [
          -89.9050257,
          35.9361902
        ]
      },
      "id": "node/8663757850"
    },
    {
      "type": "Feature",
      "properties": {
        "@id": "node/8711096768",
        "name": "Cherry Tree",
        "shop": "convenience"
      },
      "geometry": {
        "type": "Point",
        "coordinates": [
          -89.9161354,
          35.9297519
        ]
      },
      "id": "node/8711096768"
    },
    {
      "type": "Feature",
      "properties": {
        "@id": "node/8729448983",
        "name": "Big T's General Store",
        "opening_hours": "Mo-Sa 06:00-19:00",
        "shop": "convenience"
      },
      "geometry": {
        "type": "Point",
        "coordinates": [
          -93.7769963,
          34.619268
        ]
      },
      "id": "node/8729448983"
    },
    {
      "type": "Feature",
      "properties": {
        "@id": "node/8734255644",
        "addr:city": "Hot Springs",
        "addr:housenumber": "4330",
        "addr:postcode": "71913",
        "addr:state": "AR",
        "addr:street": "Central Avenue",
        "addr:unit": "H",
        "amenity": "marketplace",
        "name": "Central Avenue Marketplace",
        "phone": "+1-501-623-4484"
      },
      "geometry": {
        "type": "Point",
        "coordinates": [
          -93.0745296,
          34.4544385
        ]
      },
      "id": "node/8734255644"
    },
    {
      "type": "Feature",
      "properties": {
        "@id": "node/8734255645",
        "addr:city": "Hot Springs",
        "addr:housenumber": "4332",
        "addr:postcode": "71913",
        "addr:state": "AR",
        "addr:street": "Temperance Hill Road",
        "addr:unit": "K;L",
        "amenity": "marketplace",
        "name": "Amazing Finds Bazaar",
        "phone": "+1-501-545-6581"
      },
      "geometry": {
        "type": "Point",
        "coordinates": [
          -93.0751459,
          34.4540695
        ]
      },
      "id": "node/8734255645"
    },
    {
      "type": "Feature",
      "properties": {
        "@id": "node/8808187787",
        "shop": "supermarket"
      },
      "geometry": {
        "type": "Point",
        "coordinates": [
          -92.3942055,
          34.6233449
        ]
      },
      "id": "node/8808187787"
    },
    {
      "type": "Feature",
      "properties": {
        "@id": "node/8869901478",
        "name": "Denny Street & Fish market",
        "shop": "convenience"
      },
      "geometry": {
        "type": "Point",
        "coordinates": [
          -89.8954609,
          35.9156779
        ]
      },
      "id": "node/8869901478"
    },
    {
      "type": "Feature",
      "properties": {
        "@id": "node/8869901796",
        "name": "Noon Market",
        "shop": "convenience"
      },
      "geometry": {
        "type": "Point",
        "coordinates": [
          -89.8999858,
          35.9195314
        ]
      },
      "id": "node/8869901796"
    },
    {
      "type": "Feature",
      "properties": {
        "@id": "node/8925155298",
        "addr:city": "Springdale",
        "addr:housenumber": "601",
        "addr:postcode": "72764",
        "addr:state": "AR",
        "addr:street": "East Emma Avenue",
        "brand": "Speedway",
        "brand:wikidata": "Q7575683",
        "brand:wikipedia": "en:Speedway (store)",
        "name": "Speedway",
        "shop": "convenience"
      },
      "geometry": {
        "type": "Point",
        "coordinates": [
          -94.1243206,
          36.184544
        ]
      },
      "id": "node/8925155298"
    },
    {
      "type": "Feature",
      "properties": {
        "@id": "node/8925253183",
        "addr:city": "Pine Bluff",
        "addr:housenumber": "1313",
        "addr:postcode": "71601",
        "addr:state": "AR",
        "addr:street": "East Harding Avenue",
        "brand": "Speedway",
        "brand:wikidata": "Q7575683",
        "brand:wikipedia": "en:Speedway (store)",
        "name": "Speedway",
        "ref": "5",
        "shop": "convenience"
      },
      "geometry": {
        "type": "Point",
        "coordinates": [
          -91.9898793,
          34.2131589
        ]
      },
      "id": "node/8925253183"
    },
    {
      "type": "Feature",
      "properties": {
        "@id": "node/9023125508",
        "name": "City Market",
        "shop": "supermarket"
      },
      "geometry": {
        "type": "Point",
        "coordinates": [
          -91.5080303,
          34.9768765
        ]
      },
      "id": "node/9023125508"
    },
    {
      "type": "Feature",
      "properties": {
        "@id": "node/9023125509",
        "name": "Chunky Munky",
        "shop": "convenience"
      },
      "geometry": {
        "type": "Point",
        "coordinates": [
          -91.5076427,
          34.9768134
        ]
      },
      "id": "node/9023125509"
    },
    {
      "type": "Feature",
      "properties": {
        "@id": "node/9023125510",
        "name": "Ring Glo",
        "shop": "supermarket"
      },
      "geometry": {
        "type": "Point",
        "coordinates": [
          -91.5108852,
          34.9769212
        ]
      },
      "id": "node/9023125510"
    },
    {
      "type": "Feature",
      "properties": {
        "@id": "node/9046835874",
        "atm": "yes",
        "name": "Danny's Store",
        "shop": "convenience"
      },
      "geometry": {
        "type": "Point",
        "coordinates": [
          -89.9274006,
          35.9192251
        ]
      },
      "id": "node/9046835874"
    },
    {
      "type": "Feature",
      "properties": {
        "@id": "node/9063077826",
        "addr:city": "Dover",
        "addr:housenumber": "8898",
        "addr:postcode": "72837",
        "addr:state": "AR",
        "addr:street": "Market Street",
        "brand": "Dollar General Market",
        "brand:wikidata": "Q145168",
        "brand:wikipedia": "en:Dollar General",
        "name": "Dollar General Market",
        "shop": "supermarket",
        "source": "esri_USDOT_Arkansas"
      },
      "geometry": {
        "type": "Point",
        "coordinates": [
          -93.1108596,
          35.3908874
        ]
      },
      "id": "node/9063077826"
    },
    {
      "type": "Feature",
      "properties": {
        "@id": "node/9103413244",
        "name": "Worksman's Travel Center",
        "opening_hours": "24/7",
        "shop": "convenience",
        "website": "https://www.workmanstravelcenters.com/"
      },
      "geometry": {
        "type": "Point",
        "coordinates": [
          -94.1531203,
          36.2552934
        ]
      },
      "id": "node/9103413244"
    },
    {
      "type": "Feature",
      "properties": {
        "@id": "node/9357916217",
        "shop": "convenience"
      },
      "geometry": {
        "type": "Point",
        "coordinates": [
          -91.705804,
          35.2394372
        ]
      },
      "id": "node/9357916217"
    },
    {
      "type": "Feature",
      "properties": {
        "@id": "node/9481680513",
        "addr:city": "Fayetteville",
        "addr:housenumber": "2720",
        "addr:postcode": "72703",
        "addr:street": "West Wedington Drive",
        "amenity": "fuel",
        "brand": "Casey's General Store",
        "brand:wikidata": "Q2940968",
        "brand:wikipedia": "en:Casey's",
        "fuel:diesel": "yes",
        "name": "Casey's General Store",
        "opening_hours": "24/7",
        "shop": "convenience"
      },
      "geometry": {
        "type": "Point",
        "coordinates": [
          -94.1979816,
          36.0787068
        ]
      },
      "id": "node/9481680513"
    },
    {
      "type": "Feature",
      "properties": {
        "@id": "node/9501316639",
        "addr:city": "Pottsville",
        "addr:housenumber": "5395",
        "addr:postcode": "72858",
        "addr:state": "AR",
        "addr:street": "West Ash Street",
        "addr:unit": "5",
        "amenity": "marketplace",
        "name": "Junkin' Paradise",
        "source": "esri/USA_NAD_Addresses"
      },
      "geometry": {
        "type": "Point",
        "coordinates": [
          -93.0493054,
          35.2514081
        ]
      },
      "id": "node/9501316639"
    },
    {
      "type": "Feature",
      "properties": {
        "@id": "node/9571769643",
        "shop": "convenience"
      },
      "geometry": {
        "type": "Point",
        "coordinates": [
          -94.2217369,
          36.3881294
        ]
      },
      "id": "node/9571769643"
    },
    {
      "type": "Feature",
      "properties": {
        "@id": "node/9790471095",
        "addr:city": "Hardy",
        "addr:housenumber": "14818",
        "addr:postcode": "72542",
        "addr:state": "AR",
        "addr:street": "Highway 63 South",
        "name": "SPRING RIVER DISPENSARY",
        "phone": "(870)955-5050",
        "shop": "supermarket",
        "website": "https://springriverdispensary.com/"
      },
      "geometry": {
        "type": "Point",
        "coordinates": [
          -91.4904704,
          36.3377864
        ]
      },
      "id": "node/9790471095"
    },
    {
      "type": "Feature",
      "properties": {
        "@id": "node/9790492535",
        "addr:city": "Brookland",
        "addr:housenumber": "12001",
        "addr:postcode": "72417",
        "addr:state": "AR",
        "addr:street": "Highway 49 North",
        "brand": "Cannabis",
        "name": "NEA Full Spectrum",
        "operator": "NEA Full Spectrum",
        "organic": "only",
        "phone": "(870) 634-6412",
        "second_hand": "no",
        "shop": "supermarket",
        "website": "https://www.neafullspectrummedicine.com/"
      },
      "geometry": {
        "type": "Point",
        "coordinates": [
          -90.5664335,
          35.960958
        ]
      },
      "id": "node/9790492535"
    },
    {
      "type": "Feature",
      "properties": {
        "@id": "node/9790520261",
        "addr:city": "Jonesboro",
        "addr:housenumber": "2929",
        "addr:postcode": "72401",
        "addr:state": "AR",
        "addr:street": "S Caraway Rd",
        "addr:unit": "Suite 1",
        "brand": "Medical Cannabis",
        "name": "Crop Co. - Jonesboro",
        "phone": "(870)336-2767",
        "shop": "supermarket",
        "website": "https://cropnea.com/"
      },
      "geometry": {
        "type": "Point",
        "coordinates": [
          -90.6801349,
          35.8092377
        ]
      },
      "id": "node/9790520261"
    },
    {
      "type": "Feature",
      "properties": {
        "@id": "node/9790522780",
        "addr:city": "West Memphis",
        "addr:housenumber": "203",
        "addr:postcode": "72301",
        "addr:state": "AR",
        "addr:street": "North Ok Street",
        "name": "Body and Mind Dispensary",
        "operator": "BaM",
        "phone": "(870)514-3711",
        "shop": "supermarket",
        "website": "https://bodyandmind.com/arkansas/westmemphisdispensary/"
      },
      "geometry": {
        "type": "Point",
        "coordinates": [
          -90.1444707,
          35.1473727
        ]
      },
      "id": "node/9790522780"
    },
    {
      "type": "Feature",
      "properties": {
        "@id": "node/9975857556",
        "shop": "convenience"
      },
      "geometry": {
        "type": "Point",
        "coordinates": [
          -94.1854152,
          36.2969679
        ]
      },
      "id": "node/9975857556"
    },
    {
      "type": "Feature",
      "properties": {
        "@id": "node/10036630047",
        "addr:city": "Fayetteville",
        "addr:housenumber": "3019",
        "addr:postcode": "72703",
        "addr:state": "AR",
        "addr:street": "North College Avenue",
        "amenity": "marketplace",
        "bulk_purchase": "yes",
        "name": "Hippie Hollow Refill",
        "opening_hours": "Tu-Sa 10:00-17:00; Su 12:00-17:00",
        "zero_waste": "yes"
      },
      "geometry": {
        "type": "Point",
        "coordinates": [
          -94.1490554,
          36.1075528
        ]
      },
      "id": "node/10036630047"
    },
    {
      "type": "Feature",
      "properties": {
        "@id": "node/10162028235",
        "name": "Winner's Circle #6",
        "shop": "convenience"
      },
      "geometry": {
        "type": "Point",
        "coordinates": [
          -93.0567807,
          34.1212782
        ]
      },
      "id": "node/10162028235"
    },
    {
      "type": "Feature",
      "properties": {
        "@id": "node/10221430618",
        "name": "E-Z Mart",
        "shop": "convenience"
      },
      "geometry": {
        "type": "Point",
        "coordinates": [
          -91.3097312,
          34.6924189
        ]
      },
      "id": "node/10221430618"
    },
    {
      "type": "Feature",
      "properties": {
        "@id": "node/10588029051",
        "shop": "supermarket"
      },
      "geometry": {
        "type": "Point",
        "coordinates": [
          -91.7987636,
          33.2298563
        ]
      },
      "id": "node/10588029051"
    },
    {
      "type": "Feature",
      "properties": {
        "@id": "node/10588029055",
        "shop": "convenience"
      },
      "geometry": {
        "type": "Point",
        "coordinates": [
          -91.7971856,
          33.2300509
        ]
      },
      "id": "node/10588029055"
    },
    {
      "type": "Feature",
      "properties": {
        "@id": "node/10682152988",
        "fuel": "gasoline",
        "shop": "convenience"
      },
      "geometry": {
        "type": "Point",
        "coordinates": [
          -92.1353318,
          34.8953153
        ]
      },
      "id": "node/10682152988"
    },
    {
      "type": "Feature",
      "properties": {
        "@id": "node/10691702874",
        "name": "Commisary",
        "shop": "supermarket"
      },
      "geometry": {
        "type": "Point",
        "coordinates": [
          -92.1503416,
          34.899863
        ]
      },
      "id": "node/10691702874"
    }
  ]
}